{
"type": "FeatureCollection",
"name": "maoershan_boundary",
"crs": { "type": "name", "properties": { "name": "urn:ogc:def:crs:EPSG::32651" } },
"features": [
{ "type": "Feature", "properties": { "OBJECTID": 1, "Id": 1, "gridcode": 1, "Shape_Leng": 120.000000004, "Shape_Area": 900.00000005599998 }, "geometry": { "type": "MultiPolygon", "coordinates": [ [ [ [ 858546.903781864792109, 5033867.833547515794635 ], [ 858516.903781864792109, 5033867.833547515794635 ], [ 858516.903781864792109, 5033897.83354751765728 ], [ 858546.903781864792109, 5033897.83354751765728 ], [ 858546.903781864792109, 5033867.833547515794635 ] ] ] ] } },
{ "type": "Feature", "properties": { "OBJECTID": 2, "Id": 2, "gridcode": 1, "Shape_Leng": 113.18716316699999, "Shape_Area": 616.20818367200002 }, "geometry": { "type": "MultiPolygon", "coordinates": [ [ [ [ 858546.903781864792109, 5033867.833547515794635 ], [ 858583.480930302292109, 5033857.563161773607135 ], [ 858557.173252079635859, 5033831.256399078294635 ], [ 858546.903781864792109, 5033867.833547515794635 ] ] ] ] } },
{ "type": "Feature", "properties": { "OBJECTID": 3, "Id": 3, "gridcode": 1, "Shape_Leng": 113.18716316299999, "Shape_Area": 616.20818362600005 }, "geometry": { "type": "MultiPolygon", "coordinates": [ [ [ [ 855936.903781863860786, 5026187.83354751393199 ], [ 855926.634311649948359, 5026151.25639907643199 ], [ 855900.326633429154754, 5026177.56316177174449 ], [ 855936.903781863860786, 5026187.83354751393199 ] ] ] ] } },
{ "type": "Feature", "properties": { "OBJECTID": 4, "Id": 4, "gridcode": 1, "Shape_Leng": 1784.3939751299999, "Shape_Area": 178844.75580300001 }, "geometry": { "type": "MultiPolygon", "coordinates": [ [ [ [ 853326.903781865723431, 5023847.83354751765728 ], [ 853190.831699346192181, 5023889.850759429857135 ], [ 853194.272251104936004, 5023947.56377212330699 ], [ 853102.747898077592254, 5024073.67766372486949 ], [ 853012.747440312989056, 5024154.092092437669635 ], [ 853218.593234988860786, 5024399.731740871444345 ], [ 853426.256809209473431, 5024512.577810211107135 ], [ 853432.798252079635859, 5024402.83354751765728 ], [ 853429.515171026811004, 5024347.75725356861949 ], [ 853462.928256963379681, 5024223.00383559986949 ], [ 853430.984592413529754, 5024043.25285904109478 ], [ 853439.869785283692181, 5023894.18852798268199 ], [ 853341.059665654785931, 5023863.67766372486949 ], [ 853326.903781865723431, 5023847.83354751765728 ] ] ] ] } },
{ "type": "Feature", "properties": { "OBJECTID": 5, "Id": 5, "gridcode": 1, "Shape_Leng": 3518.17234689, "Shape_Area": 469656.30364200001 }, "geometry": { "type": "MultiPolygon", "coordinates": [ [ [ [ 854676.903781865723431, 5023367.833547515794635 ], [ 854510.244846318848431, 5023381.174611968919635 ], [ 853942.135410283692181, 5023474.728689117357135 ], [ 853801.415195440873504, 5023457.22380630671978 ], [ 853763.562717411667109, 5023504.492483062669635 ], [ 853670.244846317917109, 5023531.17461196705699 ], [ 853643.562717410735786, 5023609.102468414232135 ], [ 853713.143711064010859, 5023727.472829742357135 ], [ 853700.037937138229609, 5023832.83354751393199 ], [ 853703.769626592285931, 5023862.833547515794635 ], [ 853698.172092411667109, 5023907.83354751393199 ], [ 853707.277927371673286, 5023981.03911392018199 ], [ 853850.244846319779754, 5024002.539358062669635 ], [ 853776.927585575729609, 5023943.828420562669635 ], [ 853832.717075322754681, 5023848.92119400203228 ], [ 853921.302585576660931, 5023900.99272720143199 ], [ 854023.453464481979609, 5023888.287038726732135 ], [ 854151.251010869629681, 5023924.779958648607135 ], [ 854196.903781865723431, 5023919.10185806453228 ], [ 854260.156650517135859, 5023926.96990005671978 ], [ 854330.545139287598431, 5024014.867849273607135 ], [ 854376.903781864792109, 5024009.10185806080699 ], [ 854439.752902960404754, 5024016.91863052174449 ], [ 854540.244846317917109, 5023942.539358062669635 ], [ 854480.244846318848431, 5023894.49248306080699 ], [ 854453.562717411667109, 5023825.957937164232135 ], [ 854653.299655890092254, 5023768.84917251393199 ], [ 854716.926059697754681, 5023617.85490981861949 ], [ 854644.541721318848431, 5023626.858205718919635 ], [ 854676.903781865723431, 5023367.833547515794635 ] ] ] ] } },
{ "type": "Feature", "properties": { "OBJECTID": 6, "Id": 6, "gridcode": 1, "Shape_Leng": 113.187163168, "Shape_Area": 616.20818368000005 }, "geometry": { "type": "MultiPolygon", "coordinates": [ [ [ [ 858846.903781864792109, 5022437.833547515794635 ], [ 858836.634311649948359, 5022401.256399078294635 ], [ 858810.326633426360786, 5022427.56316177174449 ], [ 858846.903781864792109, 5022437.833547515794635 ] ] ] ] } },
{ "type": "Feature", "properties": { "OBJECTID": 7, "Id": 7, "gridcode": 1, "Shape_Leng": 228568.63554, "Shape_Area": 238031796.13699996 }, "geometry": { "type": "MultiPolygon", "coordinates": [ [ [ [ 858846.903781864792109, 5022437.833547515794635 ], [ 858862.319431278854609, 5022486.52312270924449 ], [ 858922.475986454635859, 5022542.262258453294635 ], [ 858951.331577275879681, 5022633.404836578294635 ], [ 858982.815647100098431, 5022662.57719985768199 ], [ 858920.344638799317181, 5022814.66460220143199 ], [ 859162.475986454635859, 5022992.262258453294635 ], [ 859221.331577274948359, 5023143.40483657643199 ], [ 859342.475986455567181, 5023172.262258453294635 ], [ 859371.331577274948359, 5023293.404836578294635 ], [ 859404.000339482910931, 5023418.081350250169635 ], [ 859462.475986456498504, 5023472.262258449569345 ], [ 859521.331577275879681, 5023612.711477203294635 ], [ 859303.661289189010859, 5023652.262258453294635 ], [ 859192.475986455567181, 5023532.26225845143199 ], [ 859107.228488897904754, 5023492.03032485768199 ], [ 859072.475986454635859, 5023382.262258453294635 ], [ 859041.331577275879681, 5023323.404836578294635 ], [ 859006.579074835404754, 5023213.63677017018199 ], [ 858921.331577274948359, 5023173.40483657643199 ], [ 858863.619480106979609, 5023051.117849273607135 ], [ 858798.917331670410931, 5022991.169118804857135 ], [ 858653.005161259323359, 5022996.95158950984478 ], [ 858608.005161260254681, 5022901.60124770924449 ], [ 858561.393833135254681, 5022903.448781890794635 ], [ 858427.922763798385859, 5022811.60490981861949 ], [ 858372.410678838379681, 5022813.804006500169635 ], [ 858112.475986455567181, 5022602.26225845143199 ], [ 857898.068637821823359, 5022573.404836578294635 ], [ 857842.475986454635859, 5022633.404836578294635 ], [ 857807.628269169479609, 5022665.693654937669635 ], [ 857501.213169072754681, 5022724.19402114674449 ], [ 857397.544345829635859, 5022720.08513443171978 ], [ 857159.401950811967254, 5022803.55193130299449 ], [ 857106.990756961517036, 5022860.116872711107135 ], [ 857178.932895635254681, 5022926.77641860768199 ], [ 857268.465061161667109, 5023065.42204849049449 ], [ 857307.409763310104609, 5023228.92058364674449 ], [ 857301.292209599167109, 5023383.254690093919635 ], [ 857334.000339481048286, 5023508.08135024830699 ], [ 857450.501193975098431, 5023616.025686187669635 ], [ 857481.331577275879681, 5023713.404836578294635 ], [ 857512.475986454635859, 5023742.26225845143199 ], [ 857541.331577274948359, 5023893.40483657643199 ], [ 857572.475986456498504, 5023922.262258449569345 ], [ 857631.331577276811004, 5024032.16948501393199 ], [ 857400.898838018067181, 5024076.162404937669635 ], [ 857296.584567997604609, 5024072.02788345143199 ], [ 857302.497959110885859, 5023922.833547515794635 ], [ 857301.309604618698359, 5023892.833547515794635 ], [ 857305.249118779785931, 5023793.425588531419635 ], [ 857155.561313604936004, 5023696.76421157643199 ], [ 857115.610446902923286, 5023570.577077789232135 ], [ 857182.475986455567181, 5023473.404836578294635 ], [ 857211.331577274948359, 5023421.397390289232135 ], [ 857091.331577274948359, 5023383.40483657643199 ], [ 857019.966220830567181, 5023272.88969985768199 ], [ 856945.467014286667109, 5023115.03447524830699 ], [ 856844.356174443848431, 5023021.348562164232135 ], [ 856791.411228154785931, 5023023.446950836107135 ], [ 856732.475986454635859, 5022992.262258453294635 ], [ 856654.332065557129681, 5022955.38298599049449 ], [ 856531.185398076660931, 5023020.54656021296978 ], [ 856432.475986455567181, 5023173.40483657643199 ], [ 856281.331577275879681, 5023202.262258453294635 ], [ 856252.475986454635859, 5023233.404836578294635 ], [ 856201.583652471192181, 5023262.26225845143199 ], [ 855982.375278446823359, 5023172.220144195482135 ], [ 855947.901096317917109, 5023173.586110992357135 ], [ 855892.475986456498504, 5023233.404836578294635 ], [ 855781.959934208542109, 5023304.772024078294635 ], [ 855657.228488896042109, 5023363.636770172044635 ], [ 855622.475986455567181, 5023473.404836578294635 ], [ 855591.331577275879681, 5023502.26225845143199 ], [ 855559.246921513229609, 5023536.889333648607135 ], [ 855426.903781865723431, 5023531.64519302546978 ], [ 855351.903781865723431, 5023534.61699477955699 ], [ 855239.365329716354609, 5023530.15654556080699 ], [ 855059.869785284623504, 5023577.189016265794635 ], [ 855022.475986454635859, 5023774.595022125169635 ], [ 855140.309848759323359, 5023769.924001617357135 ], [ 855227.121982548385859, 5023863.61723892018199 ], [ 855321.903781865723431, 5023859.86174575611949 ], [ 855411.903781864792109, 5023863.428640289232135 ], [ 855471.903781865723431, 5023861.05010024830699 ], [ 855561.903781865723431, 5023864.616994781419635 ], [ 855631.269626592285931, 5023861.86858169361949 ], [ 855801.331577275879681, 5023802.262258453294635 ], [ 855933.841342901811004, 5023773.40483658015728 ], [ 856051.834506962448359, 5023956.12578384205699 ], [ 856135.254611941985786, 5024425.47636978328228 ], [ 856100.114841436035931, 5024525.73576919734478 ], [ 856011.903781865723431, 5024522.238454742357135 ], [ 855981.393833135254681, 5024523.44878188893199 ], [ 855880.315952274948359, 5024453.89433852955699 ], [ 855832.475986454635859, 5024402.26225845143199 ], [ 855690.687351200729609, 5024310.70219985768199 ], [ 855522.181797003373504, 5024317.38005630299449 ], [ 855391.410617802292109, 5024458.51775161549449 ], [ 855352.475986454635859, 5024588.872365871444345 ], [ 855476.044712040573359, 5024703.364553375169635 ], [ 855471.309604619629681, 5024822.833547515794635 ], [ 855472.515354132279754, 5024853.25469009205699 ], [ 855436.092014287598431, 5024992.25920669361949 ], [ 855351.287631963379681, 5025032.282400054857135 ], [ 855355.216159794479609, 5025131.412038726732135 ], [ 855442.475986456498504, 5025212.262258453294635 ], [ 855473.483982061967254, 5025277.965993804857135 ], [ 855468.855991337448359, 5025394.73784438893199 ], [ 855531.903781864792109, 5025392.23845474049449 ], [ 855610.742588018067181, 5025395.364065093919635 ], [ 855782.667636846192181, 5025629.76103774830699 ], [ 855932.360019658692181, 5025550.551443023607135 ], [ 855999.199924442917109, 5025622.68950454518199 ], [ 855920.316257451660931, 5025814.734182281419635 ], [ 856044.037876104004681, 5025994.53276626393199 ], [ 856102.434787725098431, 5025992.218313140794635 ], [ 856145.760288212448359, 5026038.97795669361949 ], [ 856196.120700811035931, 5026085.63872329518199 ], [ 856282.324924444779754, 5026082.22197524830699 ], [ 856401.331577276811004, 5026113.40483657643199 ], [ 856585.738925907760859, 5026142.26225845515728 ], [ 856641.331577274017036, 5026082.262258453294635 ], [ 856672.475986456498504, 5026053.40483657643199 ], [ 856703.180026982910931, 5025988.34563247486949 ], [ 856762.475986455567181, 5025933.404836578294635 ], [ 856791.331577274948359, 5025872.262258453294635 ], [ 856974.655857061035931, 5025837.26164809986949 ], [ 856970.120334599167109, 5025722.833547515794635 ], [ 856972.661838506348431, 5025658.702688140794635 ], [ 857092.434787724167109, 5025663.44878188893199 ], [ 857158.602695439010859, 5025592.03764908015728 ], [ 857211.331577274948359, 5025813.404836574569345 ], [ 857246.120700810104609, 5025845.63872329518199 ], [ 857391.023044560104609, 5025839.89653579518199 ], [ 857421.331577274017036, 5025889.25078384205699 ], [ 857139.605503057129681, 5025934.12993423268199 ], [ 857091.903781864792109, 5025932.238454742357135 ], [ 856995.613193485885859, 5025936.056203765794635 ], [ 856928.047275518067181, 5026008.97795669734478 ], [ 856799.824008915573359, 5026127.78227798268199 ], [ 856762.475986455567181, 5026323.40483657643199 ], [ 856731.160373661667109, 5026412.751150054857135 ], [ 856763.548068974167109, 5026536.35283462330699 ], [ 856761.309604618698359, 5026592.833547515794635 ], [ 856764.730014774948359, 5026679.14397231861949 ], [ 856730.123081181198359, 5026744.547414703294635 ], [ 856671.903781865723431, 5026742.23845474049449 ], [ 856641.346225713379681, 5026743.450612945482135 ], [ 856574.991550421342254, 5026533.868093414232135 ], [ 856462.475986454635859, 5026593.404836578294635 ], [ 856221.560459110885859, 5026639.40093033015728 ], [ 856130.190830206498504, 5026591.05193130299449 ], [ 856132.497959112748504, 5026532.833547515794635 ], [ 856130.141391729004681, 5026473.364553375169635 ], [ 856193.619480106979609, 5026414.549245754256845 ], [ 856266.816806768067181, 5026335.550222320482135 ], [ 856125.089511846192181, 5026204.23247329518199 ], [ 855936.903781863860786, 5026187.83354751393199 ], [ 855917.018527959473431, 5026244.56877700984478 ], [ 855928.019504521042109, 5026522.12370865046978 ], [ 855908.296298956498504, 5026562.262258453294635 ], [ 855772.096042606979609, 5026330.58623306080699 ], [ 855742.475986455567181, 5026052.262258453294635 ], [ 855702.473850225098431, 5025976.66533462703228 ], [ 855559.108676885254681, 5025873.40483657643199 ], [ 855499.226779911667109, 5026000.289602203294635 ], [ 855504.282321903854609, 5026127.83354751393199 ], [ 855501.133823368698359, 5026207.24822036549449 ], [ 855377.764682743698359, 5026262.262258453294635 ], [ 855386.659946416504681, 5026037.833547515794635 ], [ 855381.146640751510859, 5025898.72466079518199 ], [ 855288.711338018067181, 5025813.404836574569345 ], [ 855135.042819952592254, 5026051.37419692799449 ], [ 855050.238437626510859, 5025959.84709731861949 ], [ 855052.984104131348431, 5025890.56731216236949 ], [ 855195.376071902923286, 5025798.61723892018199 ], [ 855048.068637822754681, 5025693.404836578294635 ], [ 854837.269382450729609, 5025920.915212554857135 ], [ 854843.891391728073359, 5026087.980642242357135 ], [ 854902.475986454635859, 5026142.26225845515728 ], [ 854961.331577274017036, 5026293.40483657643199 ], [ 854992.475986456498504, 5026322.262258453294635 ], [ 855048.340549443848431, 5026440.63261977955699 ], [ 855129.191684696823359, 5026515.54656020924449 ], [ 855215.760288213379681, 5026608.977956695482135 ], [ 855262.475986454635859, 5026652.26225845143199 ], [ 855351.331577275879681, 5026773.40483657643199 ], [ 855442.475986456498504, 5026832.26225845143199 ], [ 855520.360813115723431, 5026916.320485992357135 ], [ 855622.475986455567181, 5026982.262258453294635 ], [ 855691.959018682129681, 5027089.862356109544635 ], [ 855841.026096318848431, 5027227.980642242357135 ], [ 856012.475986453704536, 5027282.26225845143199 ], [ 856131.331577275879681, 5027373.40483658015728 ], [ 856192.475986455567181, 5027402.262258453294635 ], [ 856367.697849249467254, 5027544.86296645924449 ], [ 856458.465061161667109, 5027685.42204849421978 ], [ 856496.140842412598431, 5027843.595876617357135 ], [ 856726.304416630417109, 5027933.22234146296978 ], [ 856791.331577274948359, 5028003.404836578294635 ], [ 856889.023838018067181, 5028034.335012359544635 ], [ 856989.635715458542109, 5028030.346975250169635 ], [ 857224.171848271973431, 5028065.320119781419635 ], [ 857302.324924442917109, 5028062.22197524830699 ], [ 857425.423984502442181, 5028094.47783462703228 ], [ 857496.903781866654754, 5028091.64519302174449 ], [ 857661.903781865723431, 5028098.183889312669635 ], [ 857816.318454717285931, 5028092.06450454890728 ], [ 857991.447849248535931, 5028153.446950836107135 ], [ 858021.903781865723431, 5028152.238454742357135 ], [ 858079.311923954635859, 5028154.514455718919635 ], [ 858171.331577275879681, 5028122.262258453294635 ], [ 858322.475986455567181, 5028093.40483657643199 ], [ 858351.331577274948359, 5028062.262258453294635 ], [ 858490.324192021973431, 5028029.15312759205699 ], [ 858531.331577276811004, 5027942.262258449569345 ], [ 858649.192905399948359, 5027904.947194976732135 ], [ 858741.331577275879681, 5027762.26225845143199 ], [ 858862.475986455567181, 5027733.404836578294635 ], [ 858892.977695439942181, 5027637.063894195482135 ], [ 859030.335178351029754, 5027437.45146743953228 ], [ 859102.475986455567181, 5027403.40483657643199 ], [ 859184.690341923385859, 5027359.90080825611949 ], [ 859221.331577274948359, 5027282.26225845143199 ], [ 859252.475986453704536, 5027223.40483657643199 ], [ 859281.331577275879681, 5027162.262258453294635 ], [ 859342.475986455567181, 5027073.404836578294635 ], [ 859376.541843387298286, 5026965.804738922044635 ], [ 859478.047275518067181, 5026773.977956695482135 ], [ 859521.331577275879681, 5026682.26225845143199 ], [ 859661.657199833542109, 5026509.83550063893199 ], [ 859852.475986454635859, 5026473.40483658015728 ], [ 859911.331577274948359, 5026442.26225845143199 ], [ 860046.230869267135859, 5026410.12907974049449 ], [ 860211.331577276811004, 5026352.26225845515728 ], [ 860332.475986455567181, 5026323.40483657643199 ], [ 860421.331577275879681, 5026262.262258453294635 ], [ 860512.475986454635859, 5026203.404836578294635 ], [ 860677.165622686035931, 5026077.115163726732135 ], [ 860751.332492803223431, 5025962.26225845143199 ], [ 860812.475070927292109, 5025933.404836578294635 ], [ 860855.519504522904754, 5025886.94914809986949 ], [ 860931.332492802292109, 5025692.26225845515728 ], [ 861022.475070927292109, 5025663.40483657643199 ], [ 861081.332492803223431, 5025632.262258453294635 ], [ 861202.857761357910931, 5025593.78630630299449 ], [ 861321.332492803223431, 5025512.26225845143199 ], [ 861382.475070927292109, 5025483.404836578294635 ], [ 861460.278415653854609, 5025318.54948989674449 ], [ 861823.504734014160931, 5025273.404836578294635 ], [ 861770.222873663529754, 5025425.42632095143199 ], [ 861772.758884405717254, 5025489.40703384205699 ], [ 861840.821018193848431, 5025618.03496352955699 ], [ 862072.475070927292109, 5025662.262258453294635 ], [ 862221.046848272904754, 5025776.19048111140728 ], [ 862372.475070927292109, 5025812.262258453294635 ], [ 862475.402317022904754, 5025848.337697906419635 ], [ 862521.332492802292109, 5025993.404836578294635 ], [ 862612.475070927292109, 5026052.262258453294635 ], [ 862671.332492803223431, 5026094.77202407643199 ], [ 862529.965915653854609, 5026186.05925552174449 ], [ 862492.475070927292109, 5026386.667776031419635 ], [ 862552.475070928223431, 5026442.26225845143199 ], [ 862608.214206669479609, 5026502.41789809986949 ], [ 862762.951145146973431, 5026551.40776626393199 ], [ 862760.120334601029754, 5026622.833547515794635 ], [ 862762.757053349167109, 5026689.33928481861949 ], [ 862960.498142217285931, 5026681.502370757982135 ], [ 863031.332492804154754, 5026863.404836578294635 ], [ 863064.890232061035931, 5026894.49797622486949 ], [ 863122.420139287598431, 5026892.218313140794635 ], [ 863241.332492803223431, 5026983.40483657643199 ], [ 863362.475070929154754, 5027012.262258453294635 ], [ 863391.332492802292109, 5027039.95146743953228 ], [ 863121.332492803223431, 5027072.26225845143199 ], [ 863092.475070928223431, 5027084.772024078294635 ], [ 863249.024753544479609, 5027134.33501235768199 ], [ 863359.226779912598431, 5027129.966115875169635 ], [ 863605.423068974167109, 5027194.47783462703228 ], [ 863684.200534795410931, 5027191.35588638111949 ], [ 863781.332492803223431, 5027269.78728286549449 ], [ 863677.475070928223431, 5027318.800954742357135 ], [ 863511.903781865723431, 5027312.23845474421978 ], [ 863455.423068975098431, 5027314.47783462330699 ], [ 863332.324924442917109, 5027282.221975250169635 ], [ 863270.427951786667109, 5027284.675588527694345 ], [ 863139.851779912598431, 5027215.58257095515728 ], [ 862937.121067021973431, 5027223.61723892018199 ], [ 862849.246921513229609, 5027128.777761382982135 ], [ 862729.701023075729609, 5027133.51469986140728 ], [ 862631.735935185104609, 5026925.939016265794635 ], [ 862451.214084600098431, 5026891.47307388111949 ], [ 862398.959445929154754, 5026893.543996734544635 ], [ 862403.341159795410931, 5027004.10124770924449 ], [ 862235.358371708542109, 5027112.57658950611949 ], [ 862343.648776982910931, 5027253.793020172044635 ], [ 862341.308689091354609, 5027312.83354751765728 ], [ 862345.126438115723431, 5027409.125051422044635 ], [ 862431.132907842285931, 5027488.814382476732135 ], [ 862496.686496709473431, 5027657.157888336107135 ], [ 862491.308689092285931, 5027792.83354751393199 ], [ 862494.730930302292109, 5027879.143972320482135 ], [ 862456.756687140092254, 5027950.90849868580699 ], [ 862354.616794561035931, 5028045.54656021296978 ], [ 862268.048191044479609, 5028138.97795669361949 ], [ 862221.332492803223431, 5028182.26225845143199 ], [ 862115.790500614792109, 5028296.168508453294635 ], [ 862165.738010380417109, 5028512.262258453294635 ], [ 862221.707859013229609, 5028451.85576431080699 ], [ 862305.623264286667109, 5028496.25884048268199 ], [ 862604.588718389160931, 5028701.98332778736949 ], [ 862674.580783817917109, 5028850.28960220143199 ], [ 862669.235935185104609, 5028985.159597320482135 ], [ 862451.457614872604609, 5029052.26225845515728 ], [ 862312.475070928223431, 5028902.26225845143199 ], [ 862281.332492802292109, 5028873.404836578294635 ], [ 862238.048191043548286, 5028691.689138336107135 ], [ 862186.756687139160931, 5028594.75859634205699 ], [ 862128.340549442917109, 5028540.632619781419635 ], [ 862072.475070927292109, 5028422.26225845143199 ], [ 862037.847995731979609, 5028390.176687164232135 ], [ 862044.254856083542109, 5028228.536672515794635 ], [ 862222.475070928223431, 5028063.40483657643199 ], [ 862251.332492801360786, 5028024.59197036549449 ], [ 862191.332492803223431, 5027853.40483657643199 ], [ 862162.475070927292109, 5027732.26225845143199 ], [ 862115.759372686035931, 5027643.977956695482135 ], [ 862072.454929325729609, 5027552.216482086107135 ], [ 862041.903781865723431, 5027553.42864029109478 ], [ 861986.276340459473431, 5027551.224050445482135 ], [ 861915.015354130417109, 5027150.28532974049449 ], [ 861952.475070927292109, 5027043.404836578294635 ], [ 861981.332492803223431, 5026952.262258453294635 ], [ 862042.639865849167109, 5026836.400442043319345 ], [ 862041.286716436967254, 5026802.26958267018199 ], [ 862197.645969364792109, 5026772.417898101732135 ], [ 862338.906345343217254, 5026697.67058365046978 ], [ 862274.469699834473431, 5026513.825368804857135 ], [ 862204.574680302292109, 5026381.73674575984478 ], [ 862146.903781865723431, 5026384.02190200984478 ], [ 862056.903781865723431, 5026380.455007476732135 ], [ 861954.496555303223431, 5026384.51445572078228 ], [ 861687.230319951660931, 5026290.83952895924449 ], [ 861591.903781865723431, 5026294.616994781419635 ], [ 861501.903781865723431, 5026291.05010024830699 ], [ 861364.887790653854609, 5026296.48100845143199 ], [ 861202.475070928223431, 5026353.40483657643199 ], [ 861098.106784793548286, 5026386.44804946705699 ], [ 860935.593357060104609, 5026380.006399078294635 ], [ 860800.650119756348431, 5026451.41203872486949 ], [ 860747.901096317917109, 5026508.343191070482135 ], [ 860706.903781865723431, 5026637.83354751393199 ], [ 860743.480930303223431, 5026648.103933257982135 ], [ 860717.174167606979609, 5026674.410695953294635 ], [ 860706.903781865723431, 5026637.83354751393199 ], [ 860631.059665654785931, 5026623.677663726732135 ], [ 860542.747898076660931, 5026591.98943130299449 ], [ 860446.356601689010859, 5026563.67766372486949 ], [ 860392.747898075729609, 5026623.677663726732135 ], [ 860255.216464971192181, 5026666.14531509205699 ], [ 860096.778964971192181, 5026843.47014419734478 ], [ 860062.747898075729609, 5026953.67766372859478 ], [ 860031.059665653854609, 5027041.98943130299449 ], [ 860002.747898076660931, 5027133.677663726732135 ], [ 859894.959201786667109, 5027272.766408843919635 ], [ 859787.208957646973431, 5027369.041433257982135 ], [ 859641.059665655717254, 5027461.98943130671978 ], [ 859602.622165654785931, 5027505.010061187669635 ], [ 859526.224155399948359, 5027671.465749664232135 ], [ 859431.059665652923286, 5027731.98943130299449 ], [ 859342.747898076660931, 5027793.677663726732135 ], [ 859251.059665653854609, 5027851.989431304857135 ], [ 859177.549228642135859, 5027934.26421157643199 ], [ 859071.059665654785931, 5028001.98943130299449 ], [ 859012.747898076660931, 5028093.67766372486949 ], [ 858926.031894656829536, 5028171.15691177174449 ], [ 858892.747898076660931, 5028243.677663726732135 ], [ 858861.059665655717254, 5028271.989431304857135 ], [ 858781.967258428223431, 5028360.51177017390728 ], [ 858742.747898075729609, 5028581.575002593919635 ], [ 858860.022373173385859, 5028797.388601226732135 ], [ 858928.631076786667109, 5029164.96733657643199 ], [ 858919.914340945892036, 5029311.20818130299449 ], [ 858831.059665654785931, 5029351.98943130299449 ], [ 858700.088901495561004, 5029453.486623687669635 ], [ 858742.747898075729609, 5029531.98943130299449 ], [ 858771.059665653854609, 5029683.67766372486949 ], [ 858805.151157353073359, 5029714.13725845143199 ], [ 858865.320529913529754, 5030036.50542251765728 ], [ 858824.563999150879681, 5030150.09490005671978 ], [ 858691.111240360885859, 5030056.87590591236949 ], [ 858648.526401493698359, 5029873.84734145924449 ], [ 858682.973117804154754, 5029712.61931411921978 ], [ 858651.059665652923286, 5029623.67766372859478 ], [ 858622.716770146973431, 5029531.890554351732135 ], [ 858591.903781865723431, 5029533.727102203294635 ], [ 858545.872898075729609, 5029530.984182281419635 ], [ 858412.747898076660931, 5029381.989431304857135 ], [ 858381.059665654785931, 5029353.677663726732135 ], [ 858349.981174442917109, 5029220.09856216236949 ], [ 858356.374301884323359, 5029112.833547512069345 ], [ 858347.707004521973431, 5028967.41484634205699 ], [ 858467.313327763229609, 5028773.94011489674449 ], [ 858405.537204717285931, 5028718.742971343919635 ], [ 858306.903781864792109, 5028724.622487945482135 ], [ 858244.372348760254681, 5028720.894460601732135 ], [ 858202.747898076660931, 5028541.989431304857135 ], [ 858114.970798467285931, 5028463.56169692799449 ], [ 858019.380588506348431, 5028515.506887359544635 ], [ 858022.798252079635859, 5028572.833547515794635 ], [ 858019.836521122604609, 5028622.519216461107135 ], [ 857923.477268192917109, 5028691.989431304857135 ], [ 857800.454196905717254, 5028371.974172515794635 ], [ 857568.233432744629681, 5028455.29631606861949 ], [ 857461.444492314942181, 5028448.93156997486949 ], [ 857302.507114384323359, 5028391.90337173268199 ], [ 857065.488071415573359, 5028406.029958648607135 ], [ 856942.507114383392036, 5028361.90337173268199 ], [ 856886.828403446823359, 5028365.22307388111949 ], [ 856762.440280888229609, 5028331.907033843919635 ], [ 856686.903781865723431, 5028336.409597320482135 ], [ 856431.214389775879681, 5028321.16972915455699 ], [ 856312.747898076660931, 5028363.67766372486949 ], [ 856221.059665653854609, 5028391.98943130299449 ], [ 856190.629367802292109, 5028426.047048492357135 ], [ 856072.747898076660931, 5028361.989431301131845 ], [ 855964.544467900879681, 5028312.32756607234478 ], [ 855922.747898075729609, 5028192.521657867357135 ], [ 856024.623203252442181, 5028046.67632095515728 ], [ 856072.747898076660931, 5028003.677663726732135 ], [ 856122.433567022904754, 5027948.068532867357135 ], [ 856011.059665653854609, 5027913.67766372486949 ], [ 855652.645359015092254, 5027581.896047515794635 ], [ 855621.271152470260859, 5027583.765554351732135 ], [ 855471.517429326660931, 5027521.47856704518199 ], [ 855379.888706181198359, 5027624.028615875169635 ], [ 855382.833957646042109, 5027673.43779556080699 ], [ 855349.839267705567181, 5027765.393361968919635 ], [ 855291.903781864792109, 5027761.93999282643199 ], [ 855255.997714970260859, 5027764.08049575611949 ], [ 855199.489536260254681, 5027827.323293609544635 ], [ 855202.845859502442181, 5027883.639211578294635 ], [ 855129.066257451660931, 5027911.98943130671978 ], [ 855082.747898076660931, 5027761.98943130299449 ], [ 855021.059665654785931, 5027673.67766372486949 ], [ 854933.302707646973431, 5027535.69304458424449 ], [ 854902.747898075729609, 5027371.989431304857135 ], [ 854871.059665653854609, 5027343.677663726732135 ], [ 854828.591098761186004, 5027296.14531509205699 ], [ 854691.059665654785931, 5027253.67766372486949 ], [ 854662.747898077592254, 5027221.98943130671978 ], [ 854626.886692021042109, 5027189.94780532643199 ], [ 854572.747898075729609, 5027071.98943130299449 ], [ 854513.546237920410931, 5027019.093923492357135 ], [ 854480.261325811035931, 5026946.57317153736949 ], [ 854415.537204716354609, 5026888.742971343919635 ], [ 854271.903781864792109, 5026897.303152004256845 ], [ 854210.405063603073359, 5026632.981252593919635 ], [ 854212.798252079635859, 5026592.833547515794635 ], [ 854211.009311649948359, 5026562.833547515794635 ], [ 854219.633579228073359, 5026418.14177505299449 ], [ 854163.539218876510859, 5026368.022146144881845 ], [ 854091.145725226029754, 5026449.046316070482135 ], [ 853947.294406864792109, 5026440.473318023607135 ], [ 853908.227939579635859, 5026272.56377212330699 ], [ 853944.292392706498504, 5026137.90984145924449 ], [ 853939.221286748535931, 5026052.83354751393199 ], [ 853944.586276982910931, 5025962.83354751765728 ], [ 853938.327732061967254, 5025857.83354751765728 ], [ 853943.691806767135859, 5025767.833547515794635 ], [ 853939.345798466354609, 5025694.922780914232135 ], [ 854066.677341436035931, 5025476.95036880299449 ], [ 854182.747898076660931, 5025423.67766372486949 ], [ 854244.426975226029754, 5025390.160207668319345 ], [ 854237.433261845260859, 5025272.833547515794635 ], [ 854242.798252079635859, 5025182.83354751393199 ], [ 854237.631931278854609, 5025096.167898101732135 ], [ 854373.427524540573359, 5024930.66069595143199 ], [ 854264.358005497604609, 5024880.601491851732135 ], [ 854196.903781865723431, 5024884.622487945482135 ], [ 854151.227207157760859, 5024881.89970962703228 ], [ 854015.802402470260859, 5024955.489797515794635 ], [ 853972.747898076660931, 5025003.67766372486949 ], [ 853866.771945928223431, 5025036.402273101732135 ], [ 853742.685031865723431, 5025029.00664321705699 ], [ 853702.410984014160931, 5024941.25517837330699 ], [ 853574.595127079635859, 5025010.71257583424449 ], [ 853522.747898076660931, 5025123.677663726732135 ], [ 853456.356601689942181, 5025181.989431304857135 ], [ 853383.708591435104609, 5025100.68144790455699 ], [ 853282.747898076660931, 5025213.67766372486949 ], [ 853251.059665654785931, 5025241.98943130299449 ], [ 853215.337619755417109, 5025357.671804351732135 ], [ 853222.816562628373504, 5025483.155813140794635 ], [ 853189.162692998535931, 5025736.25700943171978 ], [ 852947.337589238770306, 5025810.93108169361949 ], [ 852886.506290410645306, 5025678.39201919361949 ], [ 852893.149814580567181, 5025566.92656509205699 ], [ 852952.747440312057734, 5025513.677663726732135 ], [ 852995.216464972123504, 5025466.14531509578228 ], [ 853132.747898075729609, 5025423.67766372486949 ], [ 853161.059665655717254, 5025404.98442642018199 ], [ 853060.910129521042109, 5025359.01946059986949 ], [ 852975.997714971192181, 5025364.080495757982135 ], [ 852866.663608524948359, 5025486.446218414232135 ], [ 852797.484073613770306, 5025541.98943130299449 ], [ 852814.120120977051556, 5025262.867116851732135 ], [ 852712.747440312057734, 5025333.677663726732135 ], [ 852665.741062139160931, 5025361.989431304857135 ], [ 852622.747440312057734, 5025279.07561294361949 ], [ 852772.844486211426556, 5025183.61540786549449 ], [ 852769.358158085495234, 5025125.122365875169635 ], [ 852804.577121709473431, 5025060.310354156419635 ], [ 852862.702579474076629, 5025063.77470962330699 ], [ 852891.060123419389129, 5025001.98943130671978 ], [ 853043.517856571823359, 5024954.911184234544635 ], [ 853039.320163700729609, 5024884.48149673268199 ], [ 853102.747898077592254, 5024793.67766372486949 ], [ 853191.059665653854609, 5024624.984426422044635 ], [ 853070.020542119629681, 5024569.43205825611949 ], [ 853076.161899540573359, 5024466.39494888111949 ], [ 852966.425418828614056, 5024324.79216567799449 ], [ 852922.747440313920379, 5024373.67766372486949 ], [ 852861.060123418457806, 5024401.98943130299449 ], [ 852829.489078495651484, 5024437.323293609544635 ], [ 852834.367008185014129, 5024519.16411392018199 ], [ 852801.060123417526484, 5024611.98943130299449 ], [ 852769.473056768998504, 5024714.28130142390728 ], [ 852620.963535283692181, 5024822.05901138484478 ], [ 852624.019107794389129, 5024873.32488052174449 ], [ 852500.966739628463984, 5025032.11028091609478 ], [ 852502.826175664551556, 5025063.309621734544635 ], [ 852470.801029179245234, 5025213.20158950611949 ], [ 852502.747440312057734, 5025271.98943130299449 ], [ 852539.968662235885859, 5025392.525930328294635 ], [ 852531.009769414551556, 5025542.833547512069345 ], [ 852532.829837772995234, 5025573.370046535506845 ], [ 852490.739383672364056, 5025730.523977203294635 ], [ 852505.479831670410931, 5025977.833547515794635 ], [ 852499.267063116654754, 5026082.075490875169635 ], [ 852532.747440312989056, 5026111.98943130671978 ], [ 852621.060123418457806, 5026233.677663726732135 ], [ 852652.747440312989056, 5026261.989431304857135 ], [ 852681.060123416595161, 5026293.67766372486949 ], [ 852712.747440312057734, 5026321.989431304857135 ], [ 852755.216464971192181, 5026369.521779937669635 ], [ 852802.747440313920379, 5026411.98943130299449 ], [ 852885.078067752532661, 5026504.13359634205699 ], [ 852931.763553594239056, 5026501.352224273607135 ], [ 853055.731906864792109, 5026640.098562164232135 ], [ 853131.059665654785931, 5027043.67766372486949 ], [ 853162.747898076660931, 5027161.989431304857135 ], [ 853191.059665653854609, 5027292.26164809986949 ], [ 852951.060123417526484, 5027431.989431304857135 ], [ 852919.018497441895306, 5027467.85063735768199 ], [ 852794.358005497604609, 5027525.06560317799449 ], [ 852741.145267461426556, 5027521.89421645924449 ], [ 852679.689121220260859, 5027590.67595474049449 ], [ 852683.095798466354609, 5027647.83049575611949 ], [ 852621.060123418457806, 5027761.98943130299449 ], [ 852592.747440311126411, 5027883.67766372486949 ], [ 852530.711765263229609, 5027997.83659927174449 ], [ 852532.838077519088984, 5028033.51103774830699 ], [ 852474.487857792526484, 5028140.887746734544635 ], [ 852439.319705937989056, 5028254.77934829518199 ], [ 852378.047580694779754, 5028367.53386489674449 ], [ 852516.903781864792109, 5028359.257497711107135 ], [ 852643.653964971192181, 5028366.81242934986949 ], [ 852739.372348759323359, 5028575.364065093919635 ], [ 852911.068057987838984, 5028654.16716568171978 ], [ 852951.060123417526484, 5028783.67766372486949 ], [ 852991.171207402832806, 5028857.491140289232135 ], [ 853161.367282842285931, 5028811.907033843919635 ], [ 853191.903781865723431, 5028813.727102203294635 ], [ 853222.627048467285931, 5028811.896047512069345 ], [ 853343.322849248535931, 5028905.43181411549449 ], [ 853416.387424441985786, 5028901.07573501765728 ], [ 853608.368930790573359, 5028832.19145767018199 ], [ 853836.874484989792109, 5028973.45366470143199 ], [ 853760.659580204635859, 5029082.562551422044635 ], [ 853824.492893193848431, 5029260.464162750169635 ], [ 853791.059665654785931, 5029321.98943130299449 ], [ 853755.758762333542109, 5029398.90288345515728 ], [ 853792.747898075729609, 5029501.98943130299449 ], [ 853826.971225712448359, 5029612.81950943171978 ], [ 853818.512668583542109, 5029754.72807876765728 ], [ 854002.747898074798286, 5029861.989431304857135 ], [ 854031.059665654785931, 5029893.67766372486949 ], [ 854132.181491826660931, 5029924.90263931080699 ], [ 854182.633457158692181, 5029921.89604751765728 ], [ 854341.192722294479609, 5030051.99065200611949 ], [ 854331.009311649948359, 5030222.83354751765728 ], [ 854332.798252079635859, 5030252.83354751393199 ], [ 854327.433261847123504, 5030342.833547515794635 ], [ 854332.953891729004681, 5030435.453786773607135 ], [ 854391.903781864792109, 5030431.93999282643199 ], [ 854444.434909795410931, 5030435.071096343919635 ], [ 854489.664707157760859, 5030581.540822906419635 ], [ 854381.626071904785931, 5030614.90263931080699 ], [ 854296.594638798385859, 5030609.834279937669635 ], [ 854179.689121221192181, 5030740.67595474049449 ], [ 854182.838535282760859, 5030793.511037750169635 ], [ 854119.100437139160931, 5030910.80290786549449 ], [ 854131.458225225098431, 5031118.136892242357135 ], [ 854013.038425420410931, 5031193.451833648607135 ], [ 854062.747898076660931, 5031331.98943130299449 ], [ 854091.896457646042109, 5031580.815114898607135 ], [ 854209.278964971192181, 5031685.694265289232135 ], [ 854120.967197392135859, 5031812.123098297044635 ], [ 854125.479831668548286, 5031887.83354751765728 ], [ 854120.115756963379681, 5031977.83354751393199 ], [ 854122.798252079635859, 5032022.833547512069345 ], [ 854115.794467900879681, 5032140.32866470143199 ], [ 854249.060459110885859, 5032225.08452408015728 ], [ 854305.049533819779754, 5032525.05156509205699 ], [ 854296.396884893067181, 5032670.23039809986949 ], [ 854462.897434210404754, 5032746.64763442799449 ], [ 854556.903781865723431, 5032741.044607086107135 ], [ 854646.903781865723431, 5032746.40959731861949 ], [ 854751.903781864792109, 5032740.15105240046978 ], [ 854854.567356083542109, 5032746.270437164232135 ], [ 855021.059665654785931, 5032722.521657867357135 ], [ 854927.150363897904754, 5032588.080129543319345 ], [ 855021.903781865723431, 5032593.72710220143199 ], [ 855066.903781864792109, 5032591.04460708424449 ], [ 855118.087253544479609, 5032594.096975250169635 ], [ 855110.115756963379681, 5032727.833547515794635 ], [ 855112.838535283692181, 5032773.511037750169635 ], [ 855065.024204229004681, 5032861.49870865046978 ], [ 854893.161411260254681, 5032891.98943130299449 ], [ 854723.642368292436004, 5032799.87090102955699 ], [ 854572.747898075729609, 5032923.677663726732135 ], [ 854451.059665653854609, 5033011.989431304857135 ], [ 854417.813205692917109, 5033049.20012466236949 ], [ 854423.351230596192181, 5033142.115163726732135 ], [ 854514.540500615723431, 5033223.59160415455699 ], [ 854508.052158331498504, 5033332.44780532643199 ], [ 854542.747898076660931, 5033461.989431304857135 ], [ 854577.687168096192181, 5033649.17998306080699 ], [ 854699.449558232910931, 5033705.065603179857135 ], [ 854781.903781865723431, 5033700.15105239674449 ], [ 854884.343051884323359, 5033706.257619781419635 ], [ 854931.059665654785931, 5033771.57500259578228 ], [ 854829.909458135254681, 5033861.95219986140728 ], [ 854659.159030889160931, 5033851.775197906419635 ], [ 854664.140415165573359, 5033935.364675445482135 ], [ 854782.747898074798286, 5033971.98943130299449 ], [ 854871.059665653854609, 5034041.57500259205699 ], [ 854771.785373662598431, 5034130.27678481861949 ], [ 854616.903781864792109, 5034121.04460708796978 ], [ 854541.903781865723431, 5034125.516042632982135 ], [ 854451.903781865723431, 5034120.15105239674449 ], [ 854381.271762823686004, 5034124.360647125169635 ], [ 854397.450962040573359, 5034271.98943130299449 ], [ 854455.695896122604609, 5034206.802053375169635 ], [ 854586.903781866654754, 5034214.62248794361949 ], [ 854681.604099247604609, 5034208.977346343919635 ], [ 854573.234958623535931, 5034408.40117446705699 ], [ 854728.270359014160931, 5034546.924123687669635 ], [ 854826.903781864792109, 5034541.044607086107135 ], [ 854994.098300906829536, 5034551.011037750169635 ], [ 854990.641269658692181, 5034609.017019195482135 ], [ 854818.792209600098431, 5034598.77409927174449 ], [ 854652.577304815873504, 5034667.907400054857135 ], [ 854590.835971806198359, 5034737.009572906419635 ], [ 854397.179050420410931, 5034685.14128677174449 ], [ 854340.565586064942181, 5034748.50310318171978 ], [ 854289.966220829635859, 5034781.989431304857135 ], [ 854182.747898076660931, 5034661.98943130299449 ], [ 854146.886692021042109, 5034629.94780532643199 ], [ 854090.261325810104609, 5034506.57317154109478 ], [ 853976.099643682129681, 5034404.57060806080699 ], [ 853768.333530399948359, 5034460.21636001765728 ], [ 853496.382541632279754, 5034619.078664703294635 ], [ 853432.747898077592254, 5034537.28728286549449 ], [ 853509.745578739792109, 5034468.48906509205699 ], [ 853672.747898075729609, 5034393.67766372486949 ], [ 853803.563022587448359, 5034302.30071060359478 ], [ 853914.318027471192181, 5034178.34380142018199 ], [ 853911.009311650879681, 5034122.83354751393199 ], [ 853917.936191534623504, 5034006.625661773607135 ], [ 853865.216464971192181, 5033959.521779937669635 ], [ 853819.834690067917109, 5033812.555837554857135 ], [ 853826.374301885254681, 5033702.833547515794635 ], [ 853819.515171024948359, 5033587.757253570482135 ], [ 853857.809848759323359, 5033444.775686187669635 ], [ 853928.591098760254681, 5033314.52177993580699 ], [ 853971.059665653854609, 5033221.989431304857135 ], [ 854012.208042118698359, 5033146.267995757982135 ], [ 853969.372348759323359, 5032945.778493804857135 ], [ 853910.964450809173286, 5032893.591604156419635 ], [ 853917.936191534623504, 5032776.62566177174449 ], [ 853865.216464971192181, 5032729.52177993953228 ], [ 853822.747898075729609, 5032591.98943130671978 ], [ 853791.059665654785931, 5032533.67766372859478 ], [ 853762.747898077592254, 5032441.98943130299449 ], [ 853703.546237919479609, 5032389.093923492357135 ], [ 853638.004550907760859, 5032246.29179947078228 ], [ 853672.825717900879681, 5032083.30962173268199 ], [ 853666.880283329635859, 5031983.55193130299449 ], [ 853583.546237919479609, 5031909.093923492357135 ], [ 853535.306186650879681, 5031803.98772231861949 ], [ 853301.059360478073359, 5031817.94951431453228 ], [ 853206.903781865723431, 5031797.833547515794635 ], [ 853196.634311651811004, 5031834.410695953294635 ], [ 853170.326633428223431, 5031808.103933257982135 ], [ 853206.903781865723431, 5031797.833547515794635 ], [ 853221.603488896042109, 5031752.53325454518199 ], [ 853553.361301396973431, 5031629.261159820482135 ], [ 853550.985507939942181, 5031512.833547515794635 ], [ 853552.790927861817181, 5031424.369802398607135 ], [ 853522.204074834473431, 5031392.533254547044635 ], [ 853491.603488896973431, 5031363.133840484544635 ], [ 853443.418369267135859, 5031214.64446059986949 ], [ 853192.120761845260859, 5031182.52226822078228 ], [ 853079.268283818848431, 5031184.825735015794635 ], [ 852952.636661503463984, 5031143.73320571705699 ], [ 852950.985507939942181, 5031062.833547515794635 ], [ 852953.420810673385859, 5030943.50554458424449 ], [ 852802.149600957520306, 5030912.522268218919635 ], [ 852682.865543338470161, 5030914.95757095143199 ], [ 852681.597537969239056, 5030852.833547515794635 ], [ 852682.210025761276484, 5030822.833547515794635 ], [ 852680.375308964401484, 5030732.932424468919635 ], [ 852824.598789189942181, 5030686.13066665828228 ], [ 852862.434787725098431, 5030612.68523208424449 ], [ 852743.678989385254681, 5030534.82512466609478 ], [ 852740.453128788620234, 5030376.742849273607135 ], [ 852784.086246465332806, 5030286.803274074569345 ], [ 852922.478275272995234, 5030253.066091461107135 ], [ 852862.203617069870234, 5030136.06352798268199 ], [ 853037.056980106048286, 5029953.13384048268199 ], [ 853072.204074834473431, 5029982.53325454518199 ], [ 853101.615390752442181, 5030013.14482681080699 ], [ 853146.903781864792109, 5030012.221975246444345 ], [ 853250.384006475098431, 5030014.333181304857135 ], [ 853329.206333135254681, 5029898.050222320482135 ], [ 853221.603488896042109, 5029863.133840480819345 ], [ 853192.204074834473431, 5029742.53325454518199 ], [ 853161.396579717285931, 5029682.73283950611949 ], [ 853221.603488896042109, 5029624.886159820482135 ], [ 853123.865451786667109, 5029617.06389419361949 ], [ 852923.617649053223431, 5029922.492971343919635 ], [ 852802.253513311035931, 5029924.96855727955699 ], [ 852800.390872930176556, 5029833.69963638111949 ], [ 852878.740329716354609, 5029758.42131606861949 ], [ 852772.203617070801556, 5029656.06352798268199 ], [ 852805.759525274857879, 5029515.07231704518199 ], [ 852921.267032597213984, 5029459.03288833796978 ], [ 852923.006992314010859, 5029373.78447524830699 ], [ 852561.772403690963984, 5029082.18535415455699 ], [ 852488.831424688920379, 5029232.53325454890728 ], [ 852441.603946660645306, 5029173.13384048640728 ], [ 852412.203617069870234, 5029082.53325454518199 ], [ 852318.424777959473431, 5029021.050100250169635 ], [ 852197.773838018067181, 5028895.47453872486949 ], [ 852202.212772343307734, 5029112.981862945482135 ], [ 852171.394290898926556, 5029626.023244781419635 ], [ 852259.819583866745234, 5030144.43694107234478 ], [ 852037.644443486817181, 5030216.532888336107135 ], [ 851845.950870487838984, 5030309.533986968919635 ], [ 851782.672824834473431, 5030370.33049575611949 ], [ 851725.203800174407661, 5030488.78691665455699 ], [ 851692.203617071732879, 5030523.13384048640728 ], [ 851554.086246465332806, 5030556.80327407643199 ], [ 851508.996524784713984, 5030649.743947906419635 ], [ 851391.603946659713984, 5030762.533254547044635 ], [ 851334.407291385345161, 5030822.06450454518199 ], [ 851271.603946659713984, 5030852.53325454518199 ], [ 851092.203617070801556, 5031003.13384048268199 ], [ 851031.603946659713984, 5031032.53325454890728 ], [ 850972.203617070801556, 5031063.13384048268199 ], [ 850851.603946660645306, 5031092.53325454518199 ], [ 850822.203617069870234, 5031123.133840484544635 ], [ 850728.424777958542109, 5031184.61699477955699 ], [ 850672.203617070801556, 5031243.13384048268199 ], [ 850612.203617069870234, 5031300.78093520924449 ], [ 850641.603946660645306, 5031393.133840484544635 ], [ 850673.393344853073359, 5031454.84221450611949 ], [ 850671.597537969239056, 5031542.833547515794635 ], [ 850672.215518925338984, 5031573.10454360768199 ], [ 850611.592044804245234, 5031722.562551422044635 ], [ 850612.215518926270306, 5031753.115529937669635 ], [ 850520.685672734864056, 5031888.14482681080699 ], [ 850522.215061161667109, 5031963.078908843919635 ], [ 850491.592502568848431, 5032112.58818618580699 ], [ 850492.250308964401484, 5032144.80742446705699 ], [ 850402.916355106979609, 5032318.22112075611949 ], [ 850399.922122930176556, 5032464.923391262069345 ], [ 850442.228183721192181, 5032671.475515289232135 ], [ 850402.203617069870234, 5032713.133840484544635 ], [ 850312.169284794479609, 5032799.636526031419635 ], [ 850282.203617069870234, 5032953.133840484544635 ], [ 850251.603946659713984, 5033012.533254547044635 ], [ 850220.065402959473431, 5033077.541189117357135 ], [ 850072.203617070801556, 5033219.603567047044635 ], [ 850174.045047735795379, 5033379.96001235768199 ], [ 850311.603946660645306, 5033523.13384048268199 ], [ 850357.503910038620234, 5033567.23296157643199 ], [ 850457.196598027832806, 5033670.995168609544635 ], [ 850524.407291387207806, 5033703.602590480819345 ], [ 850611.003818485885859, 5033793.73442642390728 ], [ 850718.103580448776484, 5033896.63420669361949 ], [ 850791.603946659713984, 5033973.13384048268199 ], [ 850853.440494511276484, 5034032.54424087330699 ], [ 850851.291751835495234, 5034137.83354751765728 ], [ 850852.822055790573359, 5034212.833547515794635 ], [ 850850.985507939942181, 5034302.83354751393199 ], [ 850852.215518926270306, 5034363.09905044361949 ], [ 850793.608036015182734, 5034534.324636382982135 ], [ 850790.985507939010859, 5034662.833547515794635 ], [ 850792.215518925338984, 5034723.10454360768199 ], [ 850703.237705204635859, 5034942.464895172044635 ], [ 850701.291751836426556, 5035037.833547512069345 ], [ 850702.779483770020306, 5035110.74065200611949 ], [ 850641.542148564942181, 5035204.14275161549449 ], [ 850405.369510624557734, 5035280.78154556080699 ], [ 850342.999210332520306, 5035524.14702407643199 ], [ 850341.291751836426556, 5035607.833547515794635 ], [ 850342.215518925338984, 5035653.11095229908824 ], [ 850279.201602908782661, 5035775.43181411921978 ], [ 850282.515811895951629, 5035937.833547512069345 ], [ 850281.597537967376411, 5035982.833547515794635 ], [ 850283.942203495651484, 5036097.713918609544635 ], [ 850239.721317265182734, 5036188.862905425950885 ], [ 850100.593204473145306, 5036222.779531402513385 ], [ 850027.503910038620234, 5036373.43321792408824 ], [ 849966.149387333542109, 5036492.53325454518199 ], [ 850072.203617070801556, 5036463.133840484544635 ], [ 850163.325595830567181, 5036431.94457046687603 ], [ 850236.903781864792109, 5036433.44603530690074 ], [ 850283.878574346192181, 5036432.487478179857135 ], [ 850426.794681524857879, 5036506.11052505299449 ], [ 850641.603946660645306, 5036282.53325454518199 ], [ 850792.203617071732879, 5036193.13384048268199 ], [ 850941.603946659713984, 5036102.533254547044635 ], [ 851378.111820194870234, 5036031.473684230819345 ], [ 851539.850711797364056, 5035863.133840484544635 ], [ 851752.203617070801556, 5035922.533254547044635 ], [ 851781.603946661576629, 5035953.13384048268199 ], [ 851812.203617069870234, 5035982.53325454518199 ], [ 851841.603946660645306, 5036133.13384048268199 ], [ 851872.203617070801556, 5036192.533254543319345 ], [ 851931.603946659713984, 5036463.133840484544635 ], [ 851988.003635381348431, 5036572.61626236140728 ], [ 852022.215518925338984, 5036672.567129058763385 ], [ 852018.643131230026484, 5036847.603139800950885 ], [ 852162.886295293457806, 5036997.73314468190074 ], [ 852232.769870731048286, 5037033.73442642018199 ], [ 852292.149600956588984, 5037032.52226821705699 ], [ 852441.657962772995234, 5037063.14482681453228 ], [ 852530.673770879395306, 5037061.328420562669635 ], [ 852562.203617070801556, 5037122.53325454518199 ], [ 852618.469181034713984, 5037238.509511871263385 ], [ 852682.215518924407661, 5037332.550649566575885 ], [ 852679.997653936035931, 5037441.23290054127574 ], [ 852711.603946659713984, 5037603.133840484544635 ], [ 852742.203617069870234, 5037632.533254547044635 ], [ 852799.934482549317181, 5037751.52983657643199 ], [ 852862.839908574707806, 5037811.96837417408824 ], [ 852860.985507939942181, 5037902.83354751393199 ], [ 852862.215518926270306, 5037963.099965972825885 ], [ 852829.858951542526484, 5038057.631826324388385 ], [ 852833.128299687989056, 5038217.83354751393199 ], [ 852831.597537969239056, 5038292.83354751393199 ], [ 852833.128299687989056, 5038367.83354751765728 ], [ 852830.434360478073359, 5038499.83519546315074 ], [ 852893.688144658692181, 5038596.31255142390728 ], [ 852952.203617069870234, 5038652.533254543319345 ], [ 853055.727329228073359, 5038760.28258316218853 ], [ 853185.192050907760859, 5038625.53343765065074 ], [ 853462.260837529785931, 5038530.697622219100595 ], [ 853611.037692997604609, 5038533.73442642018199 ], [ 853671.603488896973431, 5038502.53325454518199 ], [ 853734.407749151811004, 5038472.06450454518199 ], [ 853819.851169560104609, 5038383.13384048268199 ], [ 853945.847873662598431, 5038423.244008941575885 ], [ 854093.325595830567181, 5038473.722524566575885 ], [ 854175.785312627442181, 5038472.039785308763385 ], [ 854362.204074833542109, 5038532.533254547044635 ], [ 854503.502902959473431, 5038580.897817535325885 ], [ 854902.204074833542109, 5038652.533254543319345 ], [ 854993.325595831498504, 5038683.722524566575885 ], [ 855052.170200321823359, 5038682.52226821705699 ], [ 855247.495212529785931, 5038749.37865249440074 ], [ 855337.567539189010859, 5038705.67961685359478 ], [ 855442.215976689010859, 5038533.11369888111949 ], [ 855441.591587040573359, 5038502.55339615046978 ], [ 855532.215976690873504, 5038353.11369888111949 ], [ 855531.040439580567181, 5038295.531606594100595 ], [ 855561.603488896042109, 5038232.53325454518199 ], [ 855622.215976689942181, 5038143.116445465013385 ], [ 855621.591587041504681, 5038112.55614272877574 ], [ 855653.982028935104609, 5038049.681386871263385 ], [ 855650.679721807129681, 5037887.833547515794635 ], [ 855652.209567998535931, 5037812.83354751765728 ], [ 855651.002902959473431, 5037753.699636382982135 ], [ 855682.204074833542109, 5037693.13384048268199 ], [ 855711.603488896973431, 5037602.53325454518199 ], [ 855862.215976689942181, 5037423.119192047044635 ], [ 855861.280307743698359, 5037377.268667144700885 ], [ 855952.215976689942181, 5037243.116445465013385 ], [ 855951.066074345260859, 5037186.76665298268199 ], [ 856041.603488896973431, 5037092.53325454518199 ], [ 856192.204074834473431, 5037033.13384048268199 ], [ 856221.603488896042109, 5037002.533254547044635 ], [ 856315.382785771973431, 5036941.049184722825885 ], [ 856386.304111454635859, 5036867.23387710377574 ], [ 856457.030429814942181, 5036799.280691070482135 ], [ 856552.527255986817181, 5036658.39842788502574 ], [ 856551.592502568848431, 5036612.56255142018199 ], [ 856612.215061162598431, 5036463.10454361140728 ], [ 856610.966281865723431, 5036401.89604751765728 ], [ 856671.626377081498504, 5036433.145742340013385 ], [ 856703.345737431198359, 5036432.497548980638385 ], [ 856844.992465946823359, 5036579.925832672044635 ], [ 856913.369541143067181, 5036613.09905044361949 ], [ 856980.423679326660931, 5036751.313466949388385 ], [ 857061.626377079635859, 5036793.14574233815074 ], [ 857117.110996221192181, 5036792.01323501765728 ], [ 857443.012180303223431, 5036825.321950836107135 ], [ 857542.204074834473431, 5036793.133840480819345 ], [ 857663.549900030717254, 5036751.59911148250103 ], [ 858185.585422490723431, 5036670.35796157643199 ], [ 858321.903781864792109, 5036673.139333648607135 ], [ 858438.751621220260859, 5036670.75530044361949 ], [ 858501.626377079635859, 5036703.145742340013385 ], [ 858535.653781865723431, 5036702.450857082381845 ], [ 858652.192172978073359, 5036823.746328277513385 ], [ 858712.183933233842254, 5036822.521352691575885 ], [ 858861.623630497604609, 5036913.145742340013385 ], [ 858892.149143193848431, 5036912.522268218919635 ], [ 859041.658420537598431, 5036943.14482681080699 ], [ 859116.903781865723431, 5036941.609487457200885 ], [ 859206.903781864792109, 5036943.44603530690074 ], [ 859251.903781865723431, 5036942.527761379256845 ], [ 859296.903781864792109, 5036943.44603530690074 ], [ 859370.985507940873504, 5036941.93358413502574 ], [ 859430.254001592285931, 5037056.98332778736949 ], [ 859432.822055790573359, 5037182.83354751393199 ], [ 859430.436191533692181, 5037299.72350112721324 ], [ 859462.204074835404754, 5037392.53325454518199 ], [ 859491.603488896973431, 5037483.13384048268199 ], [ 859522.204074833542109, 5037512.53325454890728 ], [ 859553.742160771973431, 5037577.541189117357135 ], [ 859671.134738896973431, 5037690.329580230638385 ], [ 859701.603488896042109, 5037753.13384048268199 ], [ 859815.228672001510859, 5037920.75865737721324 ], [ 859867.503452274017036, 5038022.23387710750103 ], [ 859911.603488896042109, 5038113.13384048640728 ], [ 859942.204074833542109, 5038172.533254547044635 ], [ 860000.061740848235786, 5038291.791677398607135 ], [ 860249.385471317917109, 5038508.784475250169635 ], [ 860316.304111454635859, 5038578.433217925950885 ], [ 860362.204074835404754, 5038622.53325454890728 ], [ 860391.603488896973431, 5038653.13384048268199 ], [ 860422.204074834473431, 5038682.53325454518199 ], [ 860581.089267704635859, 5038874.599904937669635 ], [ 860677.503452274948359, 5038967.233877105638385 ], [ 860746.793308231979609, 5039039.351797027513385 ], [ 861089.641818975098431, 5039076.600942535325885 ], [ 861201.603488896973431, 5039193.133840484544635 ], [ 861236.644382451660931, 5039226.79961196705699 ], [ 861292.204074833542109, 5039552.53325454518199 ], [ 861333.346042607910931, 5040015.180349273607135 ], [ 861381.603488896042109, 5040213.13384048268199 ], [ 861412.204074833542109, 5040242.53325454518199 ], [ 861441.603488897904754, 5040333.133840484544635 ], [ 861500.199069950729609, 5040504.324636382982135 ], [ 861502.215061162598431, 5040603.104543609544635 ], [ 861441.603488897904754, 5040752.53325454518199 ], [ 861412.204074833542109, 5040843.13384048268199 ], [ 861381.603488896042109, 5040902.53325454518199 ], [ 861352.204074834473431, 5040993.133840484544635 ], [ 861291.603488896973431, 5041082.53325454890728 ], [ 861256.141452763229609, 5041155.630788726732135 ], [ 861076.654148076660931, 5041213.874807281419635 ], [ 860842.204074833542109, 5041600.484609527513385 ], [ 860931.603488896042109, 5041863.133840484544635 ], [ 861023.462009404785931, 5042041.44743911921978 ], [ 861019.997653935104609, 5042211.232900543138385 ], [ 861051.603488896973431, 5042373.13384048640728 ], [ 861082.204074833542109, 5042402.533254547044635 ], [ 861118.953342413529754, 5042515.783986968919635 ], [ 861270.546359989792109, 5042564.97527114674449 ], [ 861441.603488897904754, 5042853.13384048268199 ], [ 861500.120334600098431, 5042909.35454360768199 ], [ 861561.603488896042109, 5043003.133840484544635 ], [ 861622.839450811035931, 5043061.968374175950885 ], [ 861619.865817998535931, 5043207.713460844010115 ], [ 861679.935398076660931, 5043331.52983657643199 ], [ 861712.204074832610786, 5043362.533712308853865 ], [ 861801.603488896042109, 5043513.133382722735405 ], [ 861832.204074833542109, 5043542.533712308853865 ], [ 861861.603488896973431, 5043663.13338272087276 ], [ 861893.416233036667109, 5043693.69872085750103 ], [ 861890.984592412598431, 5043812.833547515794635 ], [ 861892.215061160735786, 5043873.11049453727901 ], [ 861846.303195927292109, 5043962.233419340103865 ], [ 861787.504367804154754, 5044083.433675687760115 ], [ 861651.603488896973431, 5044172.533712312579155 ], [ 861622.204074833542109, 5044203.133382722735405 ], [ 861556.802463505417109, 5044234.86327163502574 ], [ 861591.603488896042109, 5044413.133382722735405 ], [ 861622.204074833542109, 5044472.533712308853865 ], [ 861664.503269169479609, 5044646.049947660416365 ], [ 861711.603488896042109, 5044743.133382719010115 ], [ 861744.617404911667109, 5044774.852743070572615 ], [ 861741.597995733842254, 5044922.833547515794635 ], [ 861742.515354129485786, 5044967.83354751393199 ], [ 861739.790744755417109, 5045101.39113418571651 ], [ 861787.504367804154754, 5045147.233419340103865 ], [ 861872.245578740723431, 5045235.433492582291365 ], [ 862020.758762332610786, 5045286.267232816666365 ], [ 862438.338108037598431, 5045225.245504301041365 ], [ 862551.603488897904754, 5045343.133382719010115 ], [ 862616.611423467285931, 5045374.67192642018199 ], [ 862716.303195927292109, 5045478.43367568962276 ], [ 862788.184909795410931, 5045547.496023101732135 ], [ 862910.080051396973431, 5045748.502798004075885 ], [ 862912.839450810104609, 5045883.66484634205699 ], [ 862851.592502567917109, 5046002.556600496172905 ], [ 862852.515354132279754, 5046047.83354751393199 ], [ 862850.416965460404754, 5046150.674276273697615 ], [ 862881.603488896973431, 5046183.13338272087276 ], [ 862912.204074834473431, 5046212.53371230699122 ], [ 862969.895114873535931, 5046272.579030914232135 ], [ 863078.577365851029754, 5046307.846975250169635 ], [ 863123.357639286667109, 5046394.774923246353865 ], [ 863181.603488896973431, 5046693.133382719010115 ], [ 863243.994846317917109, 5046875.410756988450885 ], [ 863241.292209599167109, 5047007.833547515794635 ], [ 863243.128757450729609, 5047097.83354751765728 ], [ 863241.002902958542109, 5047201.967458648607135 ], [ 863272.204074835404754, 5047262.533483427017927 ], [ 863301.603488896973431, 5047323.133611602708697 ], [ 863332.204074834473431, 5047382.533483428880572 ], [ 863368.585300420410931, 5047494.648961942642927 ], [ 863437.504367803223431, 5047428.433446809649467 ], [ 863481.603488896042109, 5047382.533483428880572 ], [ 863590.003757451660931, 5047347.357320707291365 ], [ 863722.215061161667109, 5047173.11781875602901 ], [ 863721.063327764160931, 5047116.64809219352901 ], [ 863779.803562139160931, 5046935.63139907643199 ], [ 863811.603488896042109, 5046902.533483428880572 ], [ 863871.554050419479609, 5046844.93376724049449 ], [ 863872.209567997604609, 5046812.83354751393199 ], [ 863871.592502567917109, 5046782.577657621353865 ], [ 863907.775974246673286, 5046641.391439363360405 ], [ 863750.405979131348431, 5046391.22954360768199 ], [ 863752.515354132279754, 5046287.83354751393199 ], [ 863751.592502567917109, 5046242.548360746353865 ], [ 863872.204074833542109, 5046093.133382719010115 ], [ 863931.603488896042109, 5046002.533712308853865 ], [ 864033.904514287598431, 5045904.24544326774776 ], [ 864082.793674442917109, 5045761.41173354908824 ], [ 864081.024875615723431, 5045674.79460708424449 ], [ 864231.603488897904754, 5045462.53371231071651 ], [ 864393.712253546342254, 5045383.88716690056026 ], [ 864502.215061161667109, 5045133.106374664232135 ], [ 864501.110935185104609, 5045078.952474519610405 ], [ 864562.002658819779754, 5044891.30507461540401 ], [ 864680.367526983842254, 5044893.720693511888385 ], [ 864802.887058233842254, 5044776.006765289232135 ], [ 864801.592502568848431, 5044712.56209365837276 ], [ 864862.215061162598431, 5044563.105001371353865 ], [ 864861.592502567917109, 5044532.624807281419635 ], [ 864893.251438116654754, 5044253.903951570391655 ], [ 864891.592502567917109, 5044172.55660049431026 ], [ 864950.656833622604609, 5044057.90190688893199 ], [ 864981.603488896973431, 5043962.533712312579155 ], [ 865012.204074834473431, 5043873.13338272087276 ], [ 865065.055637334473431, 5043710.265188140794635 ], [ 865162.204074835404754, 5043663.13338272087276 ], [ 865208.837375615723431, 5043614.595785062760115 ], [ 865462.204074834473431, 5043543.13338271714747 ], [ 865633.394870732910931, 5043484.537801664322615 ], [ 865732.198581669479609, 5043482.521352691575885 ], [ 865815.333957647904754, 5043653.88518325611949 ], [ 865882.215061162598431, 5043752.55110733024776 ], [ 865879.413547489792109, 5043889.833974761888385 ], [ 866208.003635379485786, 5044231.83562270924449 ], [ 866271.903781865723431, 5044233.13979141227901 ], [ 866485.445041631348431, 5044228.78188125602901 ], [ 866679.571628544479609, 5044473.63463394343853 ], [ 866823.525485967285931, 5044571.214742586016655 ], [ 867078.369846318848431, 5044460.952749175950885 ], [ 867213.058567021042109, 5044507.054586332291365 ], [ 867374.209690068848431, 5044467.768850250169635 ], [ 867411.603488896042109, 5044352.53371231071651 ], [ 867472.215061163529754, 5044263.11598770134151 ], [ 867471.416721319779754, 5044224.002370754256845 ], [ 867596.228733036667109, 5044139.39894668571651 ], [ 867712.204074834473431, 5044083.133382719010115 ], [ 867771.603488896973431, 5044052.533712308853865 ], [ 867890.600070928223431, 5043994.80284683033824 ], [ 867933.997898075729609, 5043949.633474269881845 ], [ 868153.394870731979609, 5043874.537801664322615 ], [ 868308.794651006348431, 5043871.366414945572615 ], [ 868401.638278935104609, 5043903.14528457634151 ], [ 868461.903781864792109, 5043901.915273590013385 ], [ 868579.774265263229609, 5043904.320821683853865 ], [ 868671.603488896973431, 5043726.06307021714747 ], [ 868628.163547488860786, 5043632.195424957200885 ], [ 868554.637546513229609, 5043633.69597427174449 ], [ 868491.603488896042109, 5043573.133382719010115 ], [ 868402.204074834473431, 5043422.53371231071651 ], [ 868357.903537725098431, 5043379.97084609605372 ], [ 868309.444675420410931, 5043048.354940336197615 ], [ 868312.215061162598431, 5042912.607412261888385 ], [ 868281.521091436035931, 5042702.56621352955699 ], [ 868486.967258427292109, 5042621.53380386531353 ], [ 868522.215061161667109, 5042553.11095230281353 ], [ 868521.592502569779754, 5042522.550649566575885 ], [ 868701.510105108842254, 5042257.12737075611949 ], [ 868703.383274054154754, 5042165.332021636888385 ], [ 868634.187717413529754, 5041759.656362453475595 ], [ 868674.137668583542109, 5041677.30925552174449 ], [ 868811.380710575729609, 5041474.84313003346324 ], [ 868857.124118779785931, 5040960.461416168138385 ], [ 869022.254123662598431, 5040788.59129897877574 ], [ 869267.498264286667109, 5040872.53325454890728 ], [ 869330.517673466354609, 5040655.721731109544635 ], [ 869333.989353155717254, 5040485.61675063893199 ], [ 869302.204074835404754, 5040452.53325454518199 ], [ 869091.603488896042109, 5040393.13384048268199 ], [ 868942.174777959473431, 5040332.522268218919635 ], [ 868909.929904912598431, 5040333.179616851732135 ], [ 868736.516208623535931, 5040243.846120757982135 ], [ 868585.056858038529754, 5040240.75530044361949 ], [ 868518.750705693848431, 5040274.91179458424449 ], [ 868401.903781865723431, 5040272.52776138484478 ], [ 868371.638278936035931, 5040273.14482681080699 ], [ 868281.751804325729609, 5040242.37944595143199 ], [ 868225.109958622604609, 5040301.333913726732135 ], [ 868132.204074833542109, 5040333.133840484544635 ], [ 868041.603488895110786, 5040362.533254547044635 ], [ 867985.109958622604609, 5040421.33391372486949 ], [ 867889.722995731979609, 5040453.982534328475595 ], [ 867712.204074834473431, 5040362.533254547044635 ], [ 867569.597873663529754, 5040327.76885024830699 ], [ 867530.817966435104609, 5040208.26415054500103 ], [ 867264.600925420410931, 5040213.696889800950885 ], [ 867201.603488896973431, 5040183.13384048268199 ], [ 867172.204074834473431, 5040062.53325454518199 ], [ 867141.603488897904754, 5040003.13384048268199 ], [ 867100.260105107910931, 5039917.91472427174449 ], [ 866962.204074835404754, 5039882.533254547044635 ], [ 866840.067234015092254, 5039852.75938979908824 ], [ 866767.504367803223431, 5039777.23387710377574 ], [ 866721.603488896042109, 5039733.13384048268199 ], [ 866607.858371709473431, 5039559.644155425950885 ], [ 866572.204074834473431, 5039522.53325454890728 ], [ 866512.204074835404754, 5039464.886159820482135 ], [ 866541.603488896973431, 5039342.53325454518199 ], [ 866602.204074834473431, 5039253.133840480819345 ], [ 866672.604465458542109, 5039003.533620757982135 ], [ 866748.424777959473431, 5038924.61791030690074 ], [ 866842.204074835404754, 5038863.13384048268199 ], [ 866871.603488896973431, 5038832.533254547044635 ], [ 866994.053440069779754, 5038773.12743179127574 ], [ 866990.373020146042109, 5038592.83354751393199 ], [ 866992.209567999467254, 5038502.833547512069345 ], [ 866991.041355108842254, 5038445.531606597825885 ], [ 867021.603488897904754, 5038382.533254547044635 ], [ 867114.600925419479609, 5038259.97527114674449 ], [ 867110.678806278854609, 5038067.833547515794635 ], [ 867113.403415652923286, 5037934.353322906419635 ], [ 867022.204074834473431, 5037872.533254547044635 ], [ 866931.603488896042109, 5037843.133840484544635 ], [ 866840.481052373535931, 5037811.94457046315074 ], [ 866771.146335575729609, 5037813.35906020924449 ], [ 866722.204074834473431, 5037662.533254547044635 ], [ 866691.603488897904754, 5037603.133840484544635 ], [ 866645.726413702592254, 5037508.571767730638385 ], [ 866158.431491826660931, 5037518.51622573658824 ], [ 866106.303195927292109, 5037468.433217925950885 ], [ 866060.600070928223431, 5037420.86424819752574 ], [ 865885.950412725098431, 5037336.13310806080699 ], [ 865836.303195929154754, 5037288.43321792781353 ], [ 865792.204074834473431, 5037242.533254547044635 ], [ 865734.604587530717254, 5037187.192373199388385 ], [ 865671.603488896973431, 5037003.13384048640728 ], [ 865612.204074835404754, 5036792.533254547044635 ], [ 865581.603488895110786, 5036733.133840484544635 ], [ 865550.656833623535931, 5036637.76518813893199 ], [ 865417.006320928223431, 5036378.325796050950885 ], [ 865539.692478154785931, 5036197.333364410325885 ], [ 865582.204074834473431, 5036073.133840484544635 ], [ 865639.733982061035931, 5035837.14476577565074 ], [ 865758.829441045410931, 5035543.530569000169635 ], [ 865791.603488897904754, 5035442.533254547044635 ], [ 865864.202976201660931, 5035335.43120376393199 ], [ 865971.603488896973431, 5035070.651540679857135 ], [ 865912.204074834473431, 5034842.53325454890728 ], [ 865881.603488896973431, 5034753.13384048640728 ], [ 865792.204074834473431, 5034272.53325454518199 ], [ 865761.603488896973431, 5034213.133840484544635 ], [ 865722.288913702592254, 5034051.860036773607135 ], [ 865587.559909796342254, 5033734.47966568171978 ], [ 865491.903781865723431, 5033732.527761382982135 ], [ 865446.903781864792109, 5033733.445119781419635 ], [ 865401.647434208542109, 5033732.52226821705699 ], [ 865266.669406865723431, 5033767.11455337703228 ], [ 864996.903781864792109, 5033761.60857193171978 ], [ 864921.614475225098431, 5033763.14482681080699 ], [ 864776.807346318848431, 5033612.42705337703228 ], [ 864741.638278935104609, 5033613.144826812669635 ], [ 864648.794651006348431, 5033581.366872711107135 ], [ 864561.638278936035931, 5033583.14482681080699 ], [ 864472.204074834473431, 5033552.53325454518199 ], [ 864334.594821904785931, 5033507.879323882982135 ], [ 864247.504367801360786, 5033417.23296157643199 ], [ 864172.672824834473431, 5033345.33659927174449 ], [ 864142.204074834473431, 5033282.533254543319345 ], [ 864081.603488896973431, 5033193.13384048640728 ], [ 864050.065402958542109, 5033128.12590591236949 ], [ 863961.603488896973431, 5033043.13384048268199 ], [ 863932.204074834473431, 5032952.533254547044635 ], [ 863886.303195928223431, 5032863.43413345143199 ], [ 863842.204074833542109, 5032772.533254547044635 ], [ 863769.304294559173286, 5032702.49175063893199 ], [ 863719.858493778854609, 5032558.03618423268199 ], [ 863722.515354131348431, 5032427.83354751393199 ], [ 863721.592502569779754, 5032382.551565093919635 ], [ 863782.204074834473431, 5032293.13384048640728 ], [ 863841.603488896042109, 5032202.53325454518199 ], [ 863962.621555303223431, 5032043.04472915455699 ], [ 863961.557712528854609, 5031990.85967056080699 ], [ 864022.204074834473431, 5031873.133840480819345 ], [ 864077.403049442917109, 5031703.027028961107135 ], [ 864112.198581670410931, 5031631.308278961107135 ], [ 864231.903781864792109, 5031633.75273696705699 ], [ 864321.903781864792109, 5031631.914358062669635 ], [ 864411.903781865723431, 5031633.75273696705699 ], [ 864471.903781864792109, 5031632.52776138111949 ], [ 864589.556369754485786, 5031634.928274078294635 ], [ 864681.603488897904754, 5031572.53325454518199 ], [ 864800.600070927292109, 5031514.80193130299449 ], [ 864861.002902960404754, 5031451.932668609544635 ], [ 864937.504367802292109, 5031378.43413345515728 ], [ 864981.603488896973431, 5031332.53325454518199 ], [ 865102.804660772904754, 5031273.734426422044635 ], [ 865190.777683233842254, 5031182.168874664232135 ], [ 865323.245334599167109, 5031216.11662857234478 ], [ 865492.204074834473431, 5031183.13384048640728 ], [ 865744.072971317917109, 5031110.243215484544635 ], [ 865862.078952764160931, 5031190.23467056080699 ], [ 866032.204074834473431, 5031123.133840484544635 ], [ 866061.603488896042109, 5031092.53325454518199 ], [ 866180.704441043548286, 5031034.752492828294635 ], [ 866242.215061163529754, 5030883.104543605819345 ], [ 866241.521091435104609, 5030849.08354751393199 ], [ 866362.204074834473431, 5030733.13384048640728 ], [ 866391.603488896042109, 5030702.533254547044635 ], [ 866510.363864872604609, 5030624.671316070482135 ], [ 866542.240695928223431, 5030312.780446929857135 ], [ 866509.981174442917109, 5030092.03032486140728 ], [ 866512.515354131348431, 5029967.83354751393199 ], [ 866508.842258427292109, 5029787.833547515794635 ], [ 866512.209567998535931, 5029622.83354751393199 ], [ 866511.024875615723431, 5029564.790944976732135 ], [ 866542.215061162598431, 5029443.08989517018199 ], [ 866540.479221317917109, 5029358.02458755299449 ], [ 866577.446384404785931, 5029177.53935806080699 ], [ 866305.353488896973431, 5029171.98576919361949 ], [ 866029.567356083542109, 5029212.287282867357135 ], [ 866033.370456669479609, 5029025.942678375169635 ], [ 865996.392307255417109, 5028917.906789699569345 ], [ 866002.209567997604609, 5028632.833547515794635 ], [ 866001.024875616654754, 5028574.79094497486949 ], [ 866032.215061161667109, 5028453.08989517390728 ], [ 866031.013889287598431, 5028394.25627700611949 ], [ 866091.500949834473431, 5028217.53752700611949 ], [ 866093.982028936035931, 5028095.98662368580699 ], [ 866032.204074834473431, 5027976.063527984544635 ], [ 866061.603488896042109, 5027852.533254547044635 ], [ 866197.504367802292109, 5027673.43413345515728 ], [ 866241.603488897904754, 5027492.53325454518199 ], [ 866332.215061162598431, 5027343.11369888111949 ], [ 866331.592502567917109, 5027312.562551422044635 ], [ 866397.277927373535931, 5027150.622243804857135 ], [ 866362.204074834473431, 5027042.53325454518199 ], [ 866331.603488896973431, 5026983.13384048268199 ], [ 866302.204074833542109, 5026862.53325454518199 ], [ 866271.603488896042109, 5026803.13384048268199 ], [ 866242.204074834473431, 5026682.533254547044635 ], [ 866211.603488896973431, 5026653.133840484544635 ], [ 866126.862277960404754, 5026564.93376724049449 ], [ 866032.204074834473431, 5026532.533254547044635 ], [ 865858.222751591354609, 5026490.120534820482135 ], [ 865814.189548466354609, 5026361.474294586107135 ], [ 865851.603488896042109, 5026322.533254547044635 ], [ 865912.804660771042109, 5026263.73442642018199 ], [ 865986.303195927292109, 5026112.23296157643199 ], [ 866052.843723271042109, 5025983.06853286549449 ], [ 865990.503635381348431, 5025739.82207290455699 ], [ 865941.543064091354609, 5025452.773122711107135 ], [ 865976.688327764160931, 5025315.63445083424449 ], [ 865925.995578739792109, 5025167.53142349049449 ], [ 865975.835056278854609, 5025119.64568130299449 ], [ 866160.694675419479609, 5024870.26885025203228 ], [ 866272.204074834473431, 5024763.13384048268199 ], [ 866302.193088506348431, 5024731.921682281419635 ], [ 866361.903781864792109, 5024733.13933364674449 ], [ 866421.903781865723431, 5024731.914358062669635 ], [ 866562.380466436967254, 5024734.78178970143199 ], [ 866692.204074834473431, 5024703.13384048640728 ], [ 866808.673801396973431, 5024643.133840484544635 ], [ 866902.204074833542109, 5024672.533254547044635 ], [ 867017.771091434173286, 5024750.87126724049449 ], [ 867112.769870731979609, 5024701.93266860768199 ], [ 867269.506320928223431, 5024705.131521148607135 ], [ 867352.449436162598431, 5024582.76946059986949 ], [ 867320.067234013229609, 5024551.65617934986949 ], [ 867412.204074832610786, 5024463.133840484544635 ], [ 867488.575534795410931, 5024346.647634429857135 ], [ 867682.204074833542109, 5024193.133840484544635 ], [ 867858.604221317917109, 5024009.533986968919635 ], [ 868072.238864873535931, 5023804.27641860768199 ], [ 868071.592502568848431, 5023772.557058257982135 ], [ 868129.272556279785931, 5023660.58806411921978 ], [ 868192.215061161667109, 5023443.09355727955699 ], [ 868190.373020145110786, 5023352.83354751393199 ], [ 868192.209567998535931, 5023262.833547515794635 ], [ 868191.013889286667109, 5023204.25627700611949 ], [ 868222.204074833542109, 5023113.133840484544635 ], [ 868266.002902958542109, 5022933.46343032643199 ], [ 868312.180271123535931, 5022932.522268215194345 ], [ 868428.673801396042109, 5022992.53325454890728 ], [ 868432.211399052292109, 5022872.888479156419635 ], [ 868430.991916631348431, 5022813.122854156419635 ], [ 868465.217990851029754, 5022780.23711196705699 ], [ 868461.597995731979609, 5022602.83354751765728 ], [ 868464.038791631348431, 5022483.18327895924449 ], [ 868402.193088505417109, 5022481.921682281419635 ], [ 868357.504367803223431, 5022528.43413345143199 ], [ 868211.864109013229609, 5022575.69365493580699 ], [ 868161.592502568848431, 5022722.568044586107135 ], [ 868162.793674444779754, 5022781.41081802174449 ], [ 868128.120822881348431, 5022882.710256500169635 ], [ 868168.704318975098431, 5023120.65031997486949 ], [ 868122.664279910735786, 5023262.53325454518199 ], [ 868070.795993778854609, 5023232.66875259205699 ], [ 868012.204074833542109, 5022932.533254547044635 ], [ 867981.603488896973431, 5022903.13384048640728 ], [ 867942.863864872604609, 5022823.28337661921978 ], [ 867891.603488896973431, 5022872.53325454518199 ], [ 867833.956394169479609, 5022932.533254547044635 ], [ 867741.603488896042109, 5022903.13384048640728 ], [ 867625.133762333542109, 5022843.133840484544635 ], [ 867427.308444951660931, 5022958.327321929857135 ], [ 867352.204074834473431, 5023113.133840484544635 ], [ 867269.065036748535931, 5023193.01360122486949 ], [ 867201.603488896973431, 5023292.53325454518199 ], [ 867097.110691044479609, 5023614.546194000169635 ], [ 866965.133762333542109, 5023682.53325454518199 ], [ 866924.136447881348431, 5023646.58598892390728 ], [ 866872.193088506348431, 5023592.52226822078228 ], [ 866815.287570928223431, 5023593.68315688893199 ], [ 866811.041355106979609, 5023385.53069107234478 ], [ 866841.603488896042109, 5023322.53325454518199 ], [ 866872.215061162598431, 5023263.11003677174449 ], [ 866871.557712528854609, 5023230.859670558944345 ], [ 866946.867160771042109, 5023084.67009536921978 ], [ 866841.614475225098431, 5023082.522268218919635 ], [ 866810.600070927292109, 5023114.801931304857135 ], [ 866633.427219364792109, 5023200.75713150203228 ], [ 866601.603488896042109, 5023262.53325454518199 ], [ 866572.204074834473431, 5023323.133840484544635 ], [ 866541.603488896973431, 5023382.533254547044635 ], [ 866499.639377568848431, 5023554.674367828294635 ], [ 866361.002902958542109, 5023621.932668609544635 ], [ 866274.533176396973431, 5023711.93266861140728 ], [ 866119.431858035735786, 5023743.701467437669635 ], [ 865977.085666630417109, 5023740.795583648607135 ], [ 865852.253513310104609, 5023860.733327789232135 ], [ 865851.597995732910931, 5023892.833547515794635 ], [ 865852.799167608842254, 5023951.723928375169635 ], [ 865762.204074833542109, 5024013.133840484544635 ], [ 865671.603488896973431, 5024072.533254547044635 ], [ 865593.172092412598431, 5024192.163381500169635 ], [ 865371.771945928223431, 5024102.35930434986949 ], [ 865298.714694951660931, 5024178.39751235768199 ], [ 865250.391330692917109, 5024131.967458648607135 ], [ 865252.802829717285931, 5024013.75090591236949 ], [ 865192.204074833542109, 5023982.53325454518199 ], [ 865072.231540654785931, 5023924.329519195482135 ], [ 865158.604221317917109, 5023834.43205825611949 ], [ 865251.903781864792109, 5023832.52776138111949 ], [ 865426.187229131348431, 5023836.083669586107135 ], [ 865528.561496709473431, 5023768.964528961107135 ], [ 865611.603488896042109, 5023682.53325454518199 ], [ 865762.204074833542109, 5023593.13384048640728 ], [ 865801.403293583542109, 5023512.333059234544635 ], [ 865919.775485966354609, 5023454.905691070482135 ], [ 865972.215061162598431, 5023353.110036773607135 ], [ 865971.041355107910931, 5023295.56731216236949 ], [ 866116.597385380417109, 5023144.071340484544635 ], [ 866270.649509404785931, 5023069.33318130671978 ], [ 866272.209567998535931, 5022992.833547515794635 ], [ 866270.442600224167109, 5022906.19170181453228 ], [ 866388.604221317917109, 5022783.207082672044635 ], [ 866466.903781864792109, 5022781.608571929857135 ], [ 866587.198581671342254, 5022784.064016265794635 ], [ 866634.811496708542109, 5022685.923147125169635 ], [ 866755.217990850098431, 5022570.23711196705699 ], [ 866751.279392217285931, 5022377.245778961107135 ], [ 866854.060153935104609, 5022327.380666656419635 ], [ 866571.903781864792109, 5022333.139333648607135 ], [ 866481.903781864792109, 5022331.302785797044635 ], [ 866363.861179326660931, 5022333.71245376393199 ], [ 866242.160129522904754, 5022302.52226821705699 ], [ 866183.593845342285931, 5022303.71794692799449 ], [ 865971.603488896973431, 5022123.13384048268199 ], [ 865912.804660771042109, 5022061.932668609544635 ], [ 865851.603488896042109, 5022003.133840484544635 ], [ 865798.350925420410931, 5021947.70781509205699 ], [ 865687.542819951660931, 5021872.594289703294635 ], [ 865492.160129521042109, 5021822.522268215194345 ], [ 865431.903781866654754, 5021823.75273696705699 ], [ 865315.300388310104609, 5021821.37236587330699 ], [ 865311.597995733842254, 5022002.83354751393199 ], [ 865312.215061162598431, 5022033.11552993580699 ], [ 865191.002902960404754, 5022211.93266860768199 ], [ 865124.854221318848431, 5022348.28398696705699 ], [ 865011.603488897904754, 5022422.53325454518199 ], [ 864982.204074833542109, 5022453.133840484544635 ], [ 864757.083225225098431, 5022620.014333648607135 ], [ 864635.704441044479609, 5022736.63420669361949 ], [ 864534.787692997604609, 5022841.668996730819345 ], [ 864298.120212529785931, 5022975.84685318171978 ], [ 864230.969943974167109, 5023172.03520767018199 ], [ 864232.215061163529754, 5023233.11003677174449 ], [ 864173.150730106979609, 5023347.765188140794635 ], [ 864122.928562137298286, 5023502.53325454518199 ], [ 864045.669040653854609, 5023405.694265289232135 ], [ 864082.215061162598431, 5023263.089895172044635 ], [ 864081.592502567917109, 5023232.56804458796978 ], [ 864112.204074834473431, 5023143.13384048640728 ], [ 864143.912448857910931, 5023013.06120865046978 ], [ 864292.204074833542109, 5022903.13384048640728 ], [ 864370.137424442917109, 5022822.019948882982135 ], [ 864562.204074834473431, 5022663.133840484544635 ], [ 864711.603488896042109, 5022452.533254547044635 ], [ 864802.204074834473431, 5022333.13384048268199 ], [ 864861.603488896973431, 5022242.533254547044635 ], [ 864941.904392216354609, 5022165.381765285506845 ], [ 864981.603488896973431, 5022002.533254547044635 ], [ 865012.215061163529754, 5021913.099050445482135 ], [ 865011.592502568848431, 5021882.577199859544635 ], [ 865050.160007450729609, 5021732.090139312669635 ], [ 864891.603488896973431, 5021523.133840484544635 ], [ 864811.884860968217254, 5021358.81499282643199 ], [ 864723.488864873535931, 5021223.988943023607135 ], [ 864622.193088506348431, 5021221.921682277694345 ], [ 864535.276584598235786, 5021312.38493911921978 ], [ 864233.165378544479609, 5021386.033620757982135 ], [ 864231.597995731979609, 5021462.833547515794635 ], [ 864232.641696904785931, 5021514.033498687669635 ], [ 864194.945774053223431, 5021822.533254547044635 ], [ 864110.713596317917109, 5021776.108694000169635 ], [ 864113.255100224167109, 5021651.59514419361949 ], [ 864082.204074833542109, 5021492.53325454518199 ], [ 864051.603488896042109, 5021463.13384048268199 ], [ 864022.204074834473431, 5021432.53325454890728 ], [ 863976.303195927292109, 5021388.43413345143199 ], [ 863904.004001593217254, 5021313.18327896296978 ], [ 863871.903781863860786, 5021312.52776138111949 ], [ 863826.903781865723431, 5021313.44511977955699 ], [ 863723.912448857910931, 5021311.343069000169635 ], [ 863605.133762333542109, 5021372.533254547044635 ], [ 863543.278903935104609, 5021318.29741470143199 ], [ 863512.204074833542109, 5021222.53325454518199 ], [ 863451.002902958542109, 5021163.73442642018199 ], [ 863363.740329716354609, 5021072.90862075611949 ], [ 863241.603488896042109, 5021043.133840484544635 ], [ 863152.504367802292109, 5020997.23296158015728 ], [ 863061.603488896973431, 5020953.13384048268199 ], [ 862772.296848271973431, 5020791.404104152694345 ], [ 862717.504367802292109, 5020848.434133453294635 ], [ 862612.204074833542109, 5020949.603567047044635 ], [ 862671.603488897904754, 5021013.13384048268199 ], [ 862753.491916630417109, 5021091.810598297044635 ], [ 862699.825534795410931, 5021195.986623687669635 ], [ 862703.429050420410931, 5021372.53874770924449 ], [ 862604.991550420410931, 5021420.29631606861949 ], [ 862671.528415654785931, 5021549.45891372486949 ], [ 862672.515354130417109, 5021597.83354751765728 ], [ 862671.063327763229609, 5021669.019460601732135 ], [ 862711.870212529785931, 5021794.77263442799449 ], [ 862902.380466435104609, 5021790.885305328294635 ], [ 863087.197971318848431, 5021835.940236968919635 ], [ 863128.739109013229609, 5021998.030691070482135 ], [ 863046.303195926360786, 5022077.232961578294635 ], [ 862973.740329717285931, 5022152.758474273607135 ], [ 862733.593845340423286, 5022211.30278579518199 ], [ 862612.204074833542109, 5022371.27837173640728 ], [ 862641.608982060104609, 5022453.144826812669635 ], [ 862729.744968390092254, 5022451.34673110768199 ], [ 862762.204074833542109, 5022482.533254547044635 ], [ 862791.603488896042109, 5022513.13384048268199 ], [ 862838.128757450729609, 5022557.83354751393199 ], [ 862783.722629521042109, 5022610.10649673640728 ], [ 862829.163913701660931, 5022742.867116851732135 ], [ 862760.997409794479609, 5022843.42864029109478 ], [ 862762.815647099167109, 5022932.509450836107135 ], [ 862731.903781865723431, 5022933.13933364674449 ], [ 862701.903781865723431, 5022932.52776138111949 ], [ 862642.769870731979609, 5022933.73442642018199 ], [ 862525.133762334473431, 5022873.133840484544635 ], [ 862518.834934208542109, 5022925.591726226732135 ], [ 862579.935398076660931, 5023051.52983657643199 ], [ 862641.603488896973431, 5023110.780935211107135 ], [ 862584.881076787598431, 5023173.19975845143199 ], [ 862523.013401006348431, 5023171.938161773607135 ], [ 862461.592502568848431, 5023262.551565090194345 ], [ 862462.784519169479609, 5023321.01531020924449 ], [ 862312.528171513229609, 5023398.421316070482135 ], [ 862311.292209598235786, 5023337.833547515794635 ], [ 862312.209567997604609, 5023292.83354751765728 ], [ 862311.592502567917109, 5023262.56804458424449 ], [ 862342.204074834473431, 5023173.13384048268199 ], [ 862371.603488896042109, 5023082.53325454518199 ], [ 862431.603488896973431, 5022907.239065093919635 ], [ 862136.208591435104609, 5022883.83635513111949 ], [ 862212.114963506348431, 5023031.184987945482135 ], [ 862162.204074833542109, 5023083.133840484544635 ], [ 862131.592502568848431, 5023112.54424087330699 ], [ 862132.215061161667109, 5023143.09905044361949 ], [ 862100.437107060104609, 5023235.942678375169635 ], [ 862102.822971318848431, 5023352.83354751393199 ], [ 862100.984592412598431, 5023442.833547515794635 ], [ 862104.040622685104609, 5023592.533254547044635 ], [ 862005.720310186967254, 5023561.26250259205699 ], [ 862046.111545536667109, 5023364.05058852955699 ], [ 862041.592502569779754, 5023142.568044586107135 ], [ 862092.741184210404754, 5022993.13384048268199 ], [ 861983.368625614792109, 5023056.014089507982135 ], [ 861981.597995731979609, 5023142.83354751393199 ], [ 861982.790012334473431, 5023201.29729263111949 ], [ 861895.133762332610786, 5023292.53325454518199 ], [ 861861.603488896973431, 5023233.13384048268199 ], [ 861817.940158818848431, 5023143.13384048640728 ], [ 861771.603488897904754, 5023172.533254547044635 ], [ 861712.804660771973431, 5023233.734426422044635 ], [ 861651.603488896973431, 5023292.53325454518199 ], [ 861605.590915654785931, 5023340.424489898607135 ], [ 861382.204074833542109, 5023285.96709243580699 ], [ 861411.610813116654754, 5023232.52226821705699 ], [ 861470.367526981979609, 5023233.71977798268199 ], [ 861564.064426396973431, 5023143.69963638111949 ], [ 861561.004734015092254, 5022993.750905914232135 ], [ 861621.603488896973431, 5022962.533254547044635 ], [ 861774.046115851029754, 5022932.773122711107135 ], [ 861771.292209599167109, 5022797.83354751393199 ], [ 861772.790012334473431, 5022724.369802398607135 ], [ 861714.406833623535931, 5022663.602590484544635 ], [ 861650.438938116654754, 5022632.56804458424449 ], [ 861563.703708623535931, 5022453.789358062669635 ], [ 861471.903781865723431, 5022451.91435806080699 ], [ 861411.903781863860786, 5022453.13933364674449 ], [ 861324.507541630417109, 5022451.35588638111949 ], [ 861172.204074833542109, 5022513.13384048268199 ], [ 861081.603488896973431, 5022542.53325454890728 ], [ 861052.204074833542109, 5022573.13384048268199 ], [ 861021.603488896042109, 5022602.53325454518199 ], [ 860986.254978155717254, 5022711.464528961107135 ], [ 860901.603488896042109, 5022752.53325454890728 ], [ 860872.204074834473431, 5022783.13384048268199 ], [ 860812.204074835404754, 5022840.780935211107135 ], [ 860841.603488896973431, 5022903.13384048640728 ], [ 860901.603488896042109, 5023019.60356704890728 ], [ 860841.619968389160931, 5023023.16863052174449 ], [ 860812.198581669479609, 5022962.52226821705699 ], [ 860781.903781864792109, 5022963.139333648607135 ], [ 860751.903781864792109, 5022962.527761382982135 ], [ 860690.966281864792109, 5022963.77104751393199 ], [ 860750.891208623535931, 5022847.44597427174449 ], [ 860752.209567997604609, 5022782.833547515794635 ], [ 860751.041355106979609, 5022725.53069107234478 ], [ 860782.672824833542109, 5022660.330495757982135 ], [ 860870.894870732910931, 5022575.567312160506845 ], [ 860721.903781865723431, 5022572.527761382982135 ], [ 860676.903781864792109, 5022573.445119781419635 ], [ 860630.979099248535931, 5022572.50945083796978 ], [ 860632.778110478073359, 5022660.67290298268199 ], [ 860398.234653447754681, 5022665.45927993580699 ], [ 860329.399814580567181, 5022632.064504547044635 ], [ 860215.132846806198359, 5022513.13384048268199 ], [ 860181.603488896973431, 5022542.53325454890728 ], [ 860152.204074833542109, 5022573.13384048268199 ], [ 860001.603488896042109, 5022602.53325454518199 ], [ 859942.204074833542109, 5022633.133840484544635 ], [ 859881.356296513229609, 5022662.65410415455699 ], [ 859932.114963505417109, 5022761.184987945482135 ], [ 859822.995090460404754, 5022874.75981704518199 ], [ 859701.037692998535931, 5022811.932668609544635 ], [ 859609.884128544479609, 5022813.79302017390728 ], [ 859486.544284794479609, 5022685.419607086107135 ], [ 859282.174777958542109, 5022602.522268218919635 ], [ 859251.623630498535931, 5022603.14482681080699 ], [ 859102.183933231979609, 5022512.52226821705699 ], [ 859071.626377079635859, 5022513.144826812669635 ], [ 858973.350925420410931, 5022462.51799575611949 ], [ 858846.903781864792109, 5022437.833547515794635 ] ], [ [ 864426.903781866654754, 5023097.833547515794635 ], [ 864461.582126590423286, 5023301.97600357234478 ], [ 864563.835544561035931, 5023380.901784820482135 ], [ 864589.972019169479609, 5023431.43340102955699 ], [ 864506.307468388229609, 5023570.13396255671978 ], [ 864420.780734989792109, 5023557.49602309986949 ], [ 864349.014377567917109, 5023207.385549468919635 ], [ 864357.259616826660931, 5023151.589651031419635 ], [ 864426.903781866654754, 5023097.833547515794635 ] ], [ [ 855276.903781864792109, 5029067.83354751393199 ], [ 855289.157199834473431, 5029085.580129547044635 ], [ 855324.650363895110786, 5029110.08696548268199 ], [ 855349.157199833542109, 5029235.58012954518199 ], [ 855459.978122685104609, 5029298.83574477955699 ], [ 855516.635532353073359, 5029380.89446059986949 ], [ 855594.650363896042109, 5029410.086965484544635 ], [ 855709.157199834473431, 5029505.580129547044635 ], [ 855854.436740849167109, 5029533.95049087330699 ], [ 855889.157199833542109, 5029622.793264308944345 ], [ 855649.157199832610786, 5029650.086965484544635 ], [ 855564.650363896042109, 5029715.58012954518199 ], [ 855238.980808232910931, 5029740.08696548268199 ], [ 855265.266513798385859, 5029622.83354751393199 ], [ 855258.512668583542109, 5029592.709035797044635 ], [ 855295.294895145110786, 5029442.958059234544635 ], [ 855281.815586065873504, 5029382.83354751393199 ], [ 855306.222629521973431, 5029273.962697906419635 ], [ 855199.157199835404754, 5029145.58012954890728 ], [ 855174.650363896973431, 5029083.948659820482135 ], [ 855276.903781864792109, 5029067.83354751393199 ] ], [ [ 862716.903781865723431, 5036237.83354751393199 ], [ 862699.082126592285931, 5036352.71574966236949 ], [ 862707.929782841354609, 5036462.83354751765728 ], [ 862700.698947880417109, 5036552.83354751393199 ], [ 862704.324436162598431, 5036597.96996108815074 ], [ 862613.018894169479609, 5036703.94957534596324 ], [ 862580.788669561967254, 5036731.71751968562603 ], [ 862523.018894170410931, 5036823.949575347825885 ], [ 862460.788669561967254, 5036911.717519683763385 ], [ 862433.018894170410931, 5037003.94957534596324 ], [ 862398.662815068848431, 5037097.50456802546978 ], [ 862407.688083622604609, 5037209.82970229908824 ], [ 862247.362766239792109, 5037253.708181304857135 ], [ 862132.619724249467254, 5037211.57103530690074 ], [ 862075.498142217285931, 5037216.160573882982135 ], [ 862013.018894171342254, 5037104.17876235768199 ], [ 862089.053440067917109, 5036905.774831695482135 ], [ 862261.921482060104609, 5036919.665212554857135 ], [ 862373.018894169479609, 5036823.949575347825885 ], [ 862400.788669560104609, 5036701.717519683763385 ], [ 862433.018894170410931, 5036643.949575347825885 ], [ 862460.788669561967254, 5036581.71751968190074 ], [ 862527.510471317917109, 5036487.61504165455699 ], [ 862520.180759404785931, 5036396.37907974049449 ], [ 862610.788669560104609, 5036251.717519683763385 ], [ 862716.903781865723431, 5036237.83354751393199 ] ], [ [ 858126.903781865723431, 5034587.83354751765728 ], [ 858113.562717413529754, 5034604.49248306080699 ], [ 858100.331516240723431, 5034710.86760513111949 ], [ 858049.932651495561004, 5034841.98576919361949 ], [ 858053.830051396973431, 5034873.318777007982135 ], [ 858019.977512333542109, 5035022.348318023607135 ], [ 858024.824314091354609, 5035061.311330718919635 ], [ 857945.040683721192181, 5035197.03825942799449 ], [ 857846.292819952592254, 5035261.174611968919635 ], [ 857753.562717412598431, 5035192.539358062669635 ], [ 857839.762363407760859, 5035123.512258449569345 ], [ 857870.244846318848431, 5035051.174611968919635 ], [ 857996.341342900879681, 5034893.507985992357135 ], [ 857989.903354618698359, 5034841.753225250169635 ], [ 858023.562717411667109, 5034784.49248306080699 ], [ 858055.687656376510859, 5034708.256521148607135 ], [ 858043.669528935104609, 5034611.63176528736949 ], [ 858126.903781865723431, 5034587.83354751765728 ] ], [ [ 858516.903781864792109, 5033897.83354751765728 ], [ 858470.787754032760859, 5033911.718435211107135 ], [ 858334.632358524948359, 5033961.719045562669635 ], [ 858219.545078252442181, 5034145.46172134205699 ], [ 858020.787754032760859, 5034181.71843521296978 ], [ 857928.845005011186004, 5034309.762258453294635 ], [ 857935.558567021973431, 5034393.318777007982135 ], [ 857821.325473758392036, 5034421.718435207381845 ], [ 857779.797153446823359, 5034194.05241958424449 ], [ 857784.188938115723431, 5034139.391775054857135 ], [ 857843.176364873535931, 5034033.668508453294635 ], [ 857840.631198857910931, 5034001.99858657643199 ], [ 857910.081272100098431, 5033877.521657867357135 ], [ 857863.257541631348431, 5033706.435232086107135 ], [ 857981.972141239792109, 5033632.07793227955699 ], [ 858114.845371220260859, 5033706.213674468919635 ], [ 858171.903781863860786, 5033701.62871352955699 ], [ 858261.903781865723431, 5033708.85954849049449 ], [ 858372.623996708542109, 5033699.96428481861949 ], [ 858535.019321417436004, 5033609.35820571705699 ], [ 858650.787754031829536, 5033673.94865981861949 ], [ 858923.808994267135859, 5033701.79900161549449 ], [ 858882.591037725098431, 5033814.03899184986949 ], [ 859036.933383916504681, 5034000.627126617357135 ], [ 859100.420627568848431, 5034055.326223297044635 ], [ 859130.787754032760859, 5034130.02593033015728 ], [ 859056.683139776811004, 5034193.869314117357135 ], [ 858774.917697882279754, 5034018.00383559986949 ], [ 858716.939182256348431, 5034210.57219497859478 ], [ 858635.607395146042109, 5034280.64299575984478 ], [ 858410.787754034623504, 5034331.718435211107135 ], [ 858256.271457646973431, 5034417.92815200611949 ], [ 858263.108615849167109, 5034332.83354751393199 ], [ 858258.086948368698359, 5034270.32866470515728 ], [ 858323.176364873535931, 5034153.66850845143199 ], [ 858320.641269658692181, 5034122.117605132982135 ], [ 858363.150119755417109, 5034006.361989898607135 ], [ 858503.019809696823359, 5033943.94865981861949 ], [ 858516.903781864792109, 5033897.83354751765728 ] ], [ [ 858606.903781866654754, 5030927.833547515794635 ], [ 858593.019809696823359, 5031183.948659816756845 ], [ 858560.787754032760859, 5031271.71843521296978 ], [ 858533.019809697754681, 5031363.948659820482135 ], [ 858438.642673466354609, 5031607.248220367357135 ], [ 858446.764316532760859, 5031708.32427017018199 ], [ 858380.594577763229609, 5031856.61406509205699 ], [ 858204.985446905717254, 5031909.485769195482135 ], [ 858196.514072393998504, 5032014.91240493580699 ], [ 858290.787754033692181, 5032534.87334243580699 ], [ 858229.689121222123504, 5032629.08293716236949 ], [ 858054.964389775879681, 5032765.92131607234478 ], [ 858050.680637334473431, 5032712.61198989674449 ], [ 858084.572544070892036, 5032431.04704849049449 ], [ 858080.656833623535931, 5032382.31902114674449 ], [ 858117.296237919479609, 5032214.339895172044635 ], [ 858047.368259404785931, 5032102.694997711107135 ], [ 857986.111240362748504, 5032049.920339504256845 ], [ 857999.845066044479609, 5031879.00237075611949 ], [ 857933.019809696823359, 5031841.718435211107135 ], [ 857843.019809696823359, 5031801.55791274830699 ], [ 857876.074924443848431, 5031670.80595962330699 ], [ 858022.797336552292109, 5031724.686574859544635 ], [ 858050.787754033692181, 5031631.718435211107135 ], [ 858083.019809697754681, 5031573.948659820482135 ], [ 858125.169773076660931, 5031479.48821059986949 ], [ 858200.787754031829536, 5031391.71843520924449 ], [ 858388.226413701660931, 5031363.15581313893199 ], [ 858443.019809697754681, 5031213.94865981861949 ], [ 858494.094333622604609, 5031044.308767238631845 ], [ 858558.556613896042109, 5030969.48637954518199 ], [ 858606.903781866654754, 5030927.833547515794635 ] ], [ [ 863916.903781864792109, 5025467.83354751393199 ], [ 863931.738986942917109, 5025388.352956695482135 ], [ 864051.903781865723431, 5025395.516042632982135 ], [ 864144.417819951660931, 5025390.000905914232135 ], [ 864141.010227178223431, 5025332.83354751393199 ], [ 864147.935276006348431, 5025216.62566177174449 ], [ 864107.414035770110786, 5025180.418386382982135 ], [ 864035.305271123535931, 5025184.717702789232135 ], [ 863973.873386356979609, 5025050.863943023607135 ], [ 863870.962619756348431, 5025003.631887359544635 ], [ 863873.388767217285931, 5024962.91106216236949 ], [ 863936.459445927292109, 5024846.845998687669635 ], [ 864057.810764286667109, 5024854.08049575611949 ], [ 864151.813449834473431, 5024959.289235992357135 ], [ 864224.716892218217254, 5024800.445241851732135 ], [ 864394.638767218217254, 5024760.910940093919635 ], [ 864441.903781864792109, 5024763.72710220143199 ], [ 864494.187717413529754, 5024760.61064712330699 ], [ 864621.059665653854609, 5024671.989431304857135 ], [ 864689.449558231979609, 5024640.601491851732135 ], [ 864741.903781865723431, 5024643.727102203294635 ], [ 864800.255832646042109, 5024640.24992934986949 ], [ 864914.365329718217254, 5024719.95573989674449 ], [ 864706.357517216354609, 5024851.98943130299449 ], [ 864628.526706670410931, 5024764.88249770924449 ], [ 864592.747898076660931, 5024894.77019302174449 ], [ 864718.270359015092254, 5025006.92412368580699 ], [ 864826.980075811035931, 5025000.444021148607135 ], [ 864961.520481082610786, 5025036.479177398607135 ], [ 864948.752536748535931, 5025250.692434234544635 ], [ 864801.903781864792109, 5025241.939992828294635 ], [ 864741.903781865723431, 5025245.51604263484478 ], [ 864651.903781863860786, 5025240.15105239674449 ], [ 864469.708347294479609, 5025251.01103774830699 ], [ 864473.350315069779754, 5025312.115163726732135 ], [ 864568.270359014160931, 5025396.92412368953228 ], [ 864652.440280889160931, 5025391.90703384205699 ], [ 864785.208225224167109, 5025427.46611587330699 ], [ 864831.059665653854609, 5025491.57500259578228 ], [ 864771.059665654785931, 5025601.989431304857135 ], [ 864742.747898075729609, 5025663.67766372486949 ], [ 864639.066257451660931, 5025691.98943130299449 ], [ 864562.747898076660931, 5025571.989431304857135 ], [ 864525.537204717285931, 5025538.742971343919635 ], [ 864321.903781864792109, 5025550.87920181080699 ], [ 864113.780612919479609, 5025538.47563736140728 ], [ 863916.903781864792109, 5025467.83354751393199 ], [ 863906.633396124467254, 5025504.41069595143199 ], [ 863880.326633427292109, 5025478.10393325611949 ], [ 863916.903781864792109, 5025467.83354751393199 ] ] ] ] } }
]
}
